X,Y,FID,VOLCANX020,NUMBER,NAME,LOCATION,STATUS,ELEV,TYPE,TIMEFRAME,LAT,LONG
120.3500011,15.13000711,1,1,0703-083,Pinatubo,Luzon-Philippines,Historical,1486,Stratovolcano,D1,15.13,120.35
120.5500056,16.3300084,2,2,0703-086,Santo Tomas,Luzon-Philippines,Uncertain,2260,Stratovolcano,?,16.33,120.55
121.1800028,21.83000648,3,3,0801-02=,Unnamed,Taiwan-E of,Historical,-115,Submarine volcano,D3,21.83,121.18
120.4000041,14.70500611,4,4,0703-082,Natib,Luzon-Philippines,Holocene?,1287,Stratovolcano,?,14.705,120.4
120.5000025,14.50000816,5,5,0703-081,Mariveles,Luzon-Philippines,Radiocarbon,1420,Stratovolcano,D7,14.5,120.5
121.5199991,25.17000167,6,6,0801-032,Tatun Group,Taiwan,Pleistocene-Fumarolic,1120,Stratovolcanoes,Q,25.17,121.52
120.9800058,17.14700754,7,7,0703-087,Patoc,Luzon-Philippines,Fumarolic,1865,Stratovolcano,U,17.147,120.98
120.8050028,15.82800776,8,8,0703-085,Amorong,Luzon-Philippines,Fumarolic,376,Unknown,U,15.828,120.805
120.7419992,15.20000677,9,9,0703-084,Arayat,Luzon-Philippines,Holocene?,1026,Stratovolcano,?,15.2,120.742
160.4699896,56.1049953,10,310,1000-261,Ushkovsky,Kamchatka,Historical,3943,Compound volcano,D3,56.105,160.47
121.1000009,17.320004,11,10,0703-088,Ambalatungan Group,Luzon-Philippines,Fumarolic,2329,Compound volcano,U,17.32,121.1
159.9699901,54.49999605,12,311,1000-17=,Uzon,Kamchatka,Radiocarbon,1617,Calderas,D7,54.5,159.97
160.5929906,56.01999625,13,312,1000-251,Kamen,Kamchatka,Holocene,4585,Stratovolcano,U,56.02,160.593
121.8300041,24.00000199,14,11,0801-03=,Unnamed,Taiwan-E of,Historical,0,Submarine volcano,D3,24,121.83
160.5869939,55.97799644,15,313,1000-25=,Bezymianny,Kamchatka,Historical,2882,Stratovolcano,D1,55.978,160.587
121.9200004,24.85000398,16,12,0801-031,Kueishantao,Taiwan,Pleistocene-Fumarolic,401,Stratovolcano,Q,24.85,121.92
160.6379888,56.05699499,17,314,1000-26=,Kliuchevskoi,Kamchatka,Historical,4835,Stratovolcano,D1,56.057,160.638
160.5269812,55.75499691,18,315,1000-241,Udina,Kamchatka,Holocene,2923,Stratovolcanoes,U,55.755,160.527
121.7500022,20.33000508,19,13,0704-05=,Unnamed,Luzon-N of,Historical,-24,Submarine volcano,D3,20.33,121.75
122.0700019,25.6300025,20,14,0801-041,Pengchiahsu,Taiwan-N of,Pleistocene-Fumarolic,129,Stratovolcano,Q,25.63,122.07
160.6029852,55.86199533,21,316,1000-242,Zimina,Kamchatka,Holocene,3081,Stratovolcanoes,U,55.862,160.603
120.8930001,13.72300514,22,15,0703-045,Panay,Luzon-Philippines,Pleistocene-Fumarolic,501,Stratovolcano,Q,13.723,120.893
160.319996,55.12999702,23,317,1000-23=,Kizimen,Kamchatka,Historical,2376,Stratovolcano,D2,55.13,160.32
120.9929986,14.00200723,24,16,0703-07=,Taal,Luzon-Philippines,Historical,400,Stratovolcano,D1,14.002,120.993
160.0199932,54.31999579,25,318,1000-15=,Bolshoi Semiachik,Kamchatka,Radiocarbon,1720,Stratovolcanoes,D7,54.32,160.02
122.0100043,20.46900306,26,17,0704-06-,Iraya,Luzon-N of,Historical,1009,Stratovolcano,D6,20.469,122.01
160.2729838,54.59299456,27,319,1000-19=,Krasheninnikov,Kamchatka,Radiocarbon,1856,Caldera,D5,54.593,160.273
122.330004,25.42000539,28,18,0801-04=,Unnamed,Taiwan-N of,Historical,-100,Submarine volcano,D3,25.42,122.33
160.2529948,54.4869994,29,320,1000-18=,Kikhpinych,Kamchatka,Radiocarbon,1552,Stratovolcanoes,D5,54.487,160.253
145.3999891,19.67000688,30,321,0804-15=,Asuncion,Mariana Is-C Pacific,Historical,857,Stratovolcano,D2,19.67,145.4
121.9400046,19.52300806,31,19,0704-03=,Babuyan Claro,Luzon-N of,Historical,1080,Stratovolcanoes,D2,19.523,121.94
-65.60003864,88.27000841,32,322,1707-01-,Unnamed,Arctic Ocean,Uncertain,-1500,Submarine volcano,?,88.27,-65.6
-8.169965167,71.08001028,33,323,1706-01=,Jan Mayen,Atlantic-N-Jan Mayen,Historical,2277,Stratovolcano,D1,71.08,-8.17
121.8600028,18.83000751,34,20,0704-01=,Camiguin de Babuyanes,Luzon-N of,Historical,712,Stratovolcano,D3,18.83,121.86
160.5269815,54.7529944,35,324,1000-20=,Kronotsky,Kamchatka,Historical,3528,Stratovolcano,D2,54.753,160.527
121.1999992,14.13000744,36,21,0703-06=,Maquiling,Luzon-Philippines,Holocene,1090,Stratovolcano,U,14.13,121.2
122.4580023,26.18000154,37,22,0801-05=,Zengyu,Taiwan-N of,Historical,-418,Submarine volcano,D2,26.18,122.458
161.3599885,56.65299561,38,325,1000-27=,Shiveluch,Kamchatka,Historical,3283,Stratovolcano,D1,56.653,161.36
160.6299935,54.91999419,39,326,1000-201,Schmidt,Kamchatka,Holocene,2020,Shield volcano,U,54.92,160.63
121.3300041,14.35000667,40,23,0703-08=,Jalajala,Luzon-Philippines,Fumarolic,743,Fumarole field,?,14.35,121.33
160.7199898,55.0319975,41,327,1000-22=,Komarov,Kamchatka,Radiocarbon,2070,Stratovolcano,D6,55.032,160.72
121.3000053,14.1200053,42,24,0703-051,Laguna Volc Field,Luzon-Philippines,Anthropology,654,Scoria cones,D6,14.12,121.3
122.2020056,19.07700525,43,25,0704-02=,Didicas,Luzon-N of,Historical,244,Compound volcano,D1,19.077,122.202
160.7019844,54.97299559,44,328,1000-21=,Gamchen,Kamchatka,Tephrochronology,2576,Complex volcano,D7,54.973,160.702
160.7699928,55.06999569,45,329,1000-221,Vysoky,Kamchatka,Radiocarbon,2161,Stratovolcano,D7,55.07,160.77
122.1230032,18.22200982,46,26,0703-09=,Cagua,Luzon-Philippines,Historical,1133,Stratovolcano,D3,18.222,122.123
161.749988,55.91999408,47,330,1000-232,Unnamed,Kamchatka,Holocene?,0,Cinder cones,?,55.92,161.75
121.4800056,14.07000989,48,27,0703-05=,Banahao,Luzon-Philippines,Holocene,2158,Complex volcano,U,14.07,121.48
122.0179998,13.24000834,49,28,0703-044,Malindig,Luzon-Philippines,Hot Springs,1157,Stratovolcano ?,U,13.24,122.018
2.750018236,45.50000666,50,331,0100-02-,Chaine des Puys,France,Radiocarbon,1464,Cinder cones,D7,45.5,2.75
124.0000016,24.55800233,51,29,0802-01=,Iriomote-jima,Ryukyu Is,Historical,-200,Submarine volcano,D2,24.558,124
145.6699933,18.77000372,52,332,0804-16=,Agrigan,Mariana Is-C Pacific,Historical,965,Stratovolcano,D2,18.77,145.67
145.7999981,18.13000452,53,333,0804-17=,Pagan,Mariana Is-C Pacific,Historical,570,Stratovolcanoes,D1,18.13,145.8
122.7920016,14.02000683,54,30,0703-043,Labo,Luzon-Philippines,Pleistocene-Hot Springs,1544,Compound volcano,U,14.02,122.792
123.3799989,13.65800553,55,31,0703-042,Isarog,Luzon-Philippines,Fumarolic,1966,Stratovolcano,U,13.658,123.38
145.8299968,17.60000782,56,334,0804-18=,Alamagan,Mariana Is-C Pacific,Radiocarbon,744,Stratovolcano,D6,17.6,145.83
123.4570023,13.45700634,57,32,0703-041,Iriga,Luzon-Philippines,Historical,1196,Stratovolcano,D5,13.457,123.457
2.530018822,42.1700047,58,335,0100-03-,Olot Volc Field,Spain,Holocene?,893,Pyroclastic cones,?,42.17,2.53
145.8500011,17.32000721,59,336,0804-19=,Guguan,Mariana Is-C Pacific,Historical,287,Stratovolcano,D3,17.32,145.85
123.5970016,13.4220065,60,33,0703-04=,Malinao,Luzon-Philippines,Fumarolic,1548,Stratovolcano,U,13.422,123.597
123.6,13.32000439,61,34,0703-031,Masaraga,Luzon-Philippines,Holocene,1328,Stratovolcano,U,13.32,123.6
145.7799938,16.70800599,62,337,0804-191,Sarigan,Mariana Is-C Pacific,Holocene,538,Stratovolcano,U,16.708,145.78
123.6849991,13.25700755,63,35,0703-03=,Mayon,Luzon-Philippines,Historical,2462,Stratovolcano,D1,13.257,123.685
145.6699932,16.3500063,64,338,0804-20=,Anatahan,Mariana Is-C Pacific,Historical,788,Stratovolcano,D1,16.35,145.67
123.1320054,10.41200446,65,36,0702-02=,Canlaon,Philippines-C,Historical,2435,Stratovolcano,D1,10.412,123.132
144.7749891,14.60100442,66,339,0804-211,NW Rota 1,Mariana Is-C Pacific,Historical,-517,Submarine volcano,D1,14.601,144.775
123.2300049,10.770007,67,37,0702-04=,Silay,Philippines-C,Holocene,1535,Stratovolcano,U,10.77,123.23
145.5700023,15.62000699,68,340,0804-201,Ruby,Mariana Is-C Pacific,Historical,-230,Submarine volcano,D1,15.62,145.57
123.2200028,10.61500732,69,38,0702-03=,Mandalagan,Philippines-C,Holocene,1879,Stratovolcano,U,10.615,123.22
145.2499951,15.00000445,70,341,0804-21=,Esmeralda Bank,Mariana Is-C Pacific,Fumarolic,-43,Submarine volcano,U,15,145.25
123.9580016,13.05000688,71,39,0703-02=,Pocdol Mountains,Luzon-Philippines,Holocene,1102,Compound volcano,U,13.05,123.958
167.3271044,55.41839636,72,342,1000-271,Piip,Kamchatka-E of,Tephrochronology,-300,Submarine volcano,D7,55.42,167.33
126.5299998,33.36999964,73,40,1006-04-,Halla,Korea,Historical,1950,Shield volcano,D6,33.37,126.53
-17.09997672,66.30001264,74,343,1703-10=,Tjornes Fracture Zone,Iceland-N of,Historical,0,Submarine volcano,D3,66.3,-17.1
124.0500044,12.77000915,75,41,0703-01=,Bulusan,Luzon-Philippines,Historical,1565,Stratovolcano,D1,12.77,124.05
-16.82997263,65.8800068,76,344,1703-09=,Theistareykjarbunga,Iceland,Tephrochronology,564,Shield volcano,D7,65.88,-16.83
-16.77997729,65.73001289,77,345,1703-08=,Krafla,Iceland-NE,Historical,650,Caldera,D1,65.73,-16.78
126.500001,42.32999973,78,42,1005-05-,Longgang Group,China-E,Radiocarbon,1000,Cinder cones,D4,42.33,126.5
-16.64997256,65.43000982,79,346,1703-07=,Fremrinamur,Iceland-NE,Tephrochronology,939,Stratovolcano,D7,65.43,-16.65
127.3300026,38.33000096,80,43,1006-02-,Ch'uga-ryong,Korea,Holocene?,452,Shield volcano,?,38.33,127.33
124.5350048,11.52300983,81,44,0702-08=,Biliran,Philippines-C,Historical,1301,Compound volcano,D2,11.523,124.535
-16.74998277,65.03000829,82,347,1703-06=,Askja,Iceland-NE,Historical,1516,Stratovolcano,D2,65.03,-16.75
-18.49997474,66.67000792,83,348,1705-01=,Kolbeinsey Ridge,Iceland-N of,Historical,5,Submarine volcano,D4,66.67,-18.5
124.8529979,10.87201193,84,45,0702-07=,Mahagnoa,Philippines-C,Fumarolic,800,Stratovolcano,U,10.872,124.853
128.2239994,27.8770033,85,46,0802-02=,Iwo-Tori-shima,Ryukyu Is,Historical,212,Complex volcano,D1,27.877,128.224
-16.71997659,64.65001103,86,349,1703-05=,Kverkfjoll,Iceland-NE,Historical,1920,Stratovolcano,D1,64.65,-16.72
128.0000005,41.33000004,87,47,1006-01-,Xianjindao,Korea,Historical,0,Unknown,D5,41.33,128
-16.64997519,64.27000613,88,350,1704-02=,Esjufjoll,Iceland-SE,Historical,1760,Stratovolcano,D2,64.27,-16.65
128.0800024,41.97999755,89,48,1005-06-,Baitoushan,China-E,Historical,2744,Stratovolcano,D4,41.98,128.08
-16.64997725,64.00000948,90,351,1704-01=,Oraefajokull,Iceland-SE,Historical,2119,Stratovolcano,D4,64,-16.65
-17.52998019,64.63000684,91,352,1703-03=,B rdarbunga,Iceland-NE,Historical,2000,Stratovolcano,D2,64.63,-17.53
126.1200039,48.71999726,92,49,1005-03-,Wudalianchi,China-E,Historical,597,Volcanic field,D4,48.72,126.12
-17.32997566,64.42000773,93,353,1703-01=,Grimsvotn,Iceland-NE,Historical,1725,Caldera,D1,64.42,-17.33
128.8509982,32.6530008,94,50,0802-091,Fukue-jima,Kyushu-Japan,Tephrochronology,317,Shield volcanoes,D7,32.653,128.851
-17.91997776,64.73001299,95,354,1703-04=,Tungnafellsjokull,Iceland-NE,Holocene,1535,Stratovolcano,U,64.73,-17.92
125.9199994,49.36999479,96,51,1005-02-,Keluo Group,China-E,Holocene,670,Pyroclastic cones,U,49.37,125.92
125.2210016,10.28700732,97,52,0702-05=,Cabal¡an,Philippines-C,Fumarolic,945,Stratovolcano,U,10.287,125.221
-17.79997512,64.48001297,98,355,1703-02=,Loki-Fogrufjoll,Iceland-NE,Historical,1570,Subglacial volcano,D2,64.48,-17.8
128.8300021,44.07999922,99,53,1005-04-,Jingpohu,China-E,Radiocarbon,500,Volcanic field,D7,44.08,128.83
-18.91998003,64.78000853,100,356,1701-09=,Hofsjokull,Iceland-SW,Holocene,1782,Subglacial volcano,U,64.78,-18.92
129.5970001,29.46100049,101,54,0802-021,Akuseki-jima,Ryukyu Is,Holocene?,584,Stratovolcanoes,?,29.461,129.597
-19.31997798,64.63000704,102,357,1701-10=,Kerlingarfjoll,Iceland-SW,Holocene,1488,Stratovolcano,U,64.63,-19.32
129.7160034,29.63500213,103,55,0802-03=,Suwanose-jima,Ryukyu Is,Historical,799,Stratovolcanoes,D1,29.635,129.716
-19.97997993,64.75000986,104,358,1701-08=,Langjokull,Iceland-SW,Radiocarbon,1360,Stratovolcano,D6,64.75,-19.98
129.8589934,29.85600273,105,56,0802-04=,Nakano-shima,Ryukyu Is,Historical,979,Stratovolcanoes,D2,29.856,129.859
-19.1699787,63.92000791,106,359,1702-05=,Torfajokull,Iceland-S,Historical,1259,Stratovolcano,D6,63.92,-19.17
129.9270018,29.96400631,107,57,0802-041,Kuchino-shima,Ryukyu Is,Holocene,628,Stratovolcanoes,D7,29.964,129.927
-19.04997607,63.63001079,108,360,1702-03=,Katla,Iceland-S,Historical,1512,Subglacial volcano,D2,63.63,-19.05
130.2940061,32.75699704,109,58,0802-10=,Unzen,Kyushu-Japan,Historical,1500,Complex volcano,D1,32.757,130.294
-19.69997956,63.98000935,110,361,1702-07=,Hekla,Iceland-S,Historical,1491,Stratovolcano,D1,63.98,-19.7
130.2189939,30.44000026,111,59,0802-05=,Kuchinoerabu-jima,Ryukyu Is,Historical,657,Stratovolcanoes,D1,30.44,130.219
-19.6699789,63.92000797,112,362,1702-06=,Vatnafjoll,Iceland-S,Tephrochronology,1235,Fissure vents,D6,63.92,-19.67
130.3079984,30.78900298,113,60,0802-06=,Kikai,Ryukyu Is,Historical,704,Caldera,D1,30.789,130.308
-19.56997664,63.78000856,114,363,1702-04=,Tindfjallajokull,Iceland-S,Holocene,1463,Stratovolcano,U,63.78,-19.57
-20.57997682,64.60000839,115,364,1701-07=,Prestahnukur,Iceland-SW,Radiocarbon,1390,Subglacial volcano,D7,64.6,-20.58
130.5939938,31.76800085,116,61,0802-081,Sumiyoshi-ike,Kyushu-Japan,Radiocarbon,100,Maars,D7,31.768,130.594
130.570007,31.2200026,117,62,0802-07=,Ibusuki Volc Field,Kyushu-Japan,Historical,922,Calderas,D6,31.22,130.57
-19.6199817,63.63001085,118,365,1702-02=,Eyjafjoll,Iceland-S,Historical,1666,Stratovolcano,D3,63.63,-19.62
130.6569974,31.58500225,119,63,0802-08=,Sakura-jima,Kyushu-Japan,Historical,1117,Stratovolcano,D1,31.585,130.657
-20.86998197,64.0300087,120,366,1701-06=,Grimsnes,Iceland-SW,Tephrochronology,214,Crater rows,D7,64.03,-20.87
130.8699947,37.49999938,121,64,1006-03-,Ulreung,Korea,Radiocarbon,984,Stratovolcano,D7,37.5,130.87
-20.27998,63.43001015,122,367,1702-01=,Vestmannaeyjar,Iceland-S,Historical,279,Submarine volcanoes,D1,63.43,-20.28
130.863998,31.93100281,123,65,0802-09=,Kirishima,Kyushu-Japan,Historical,1700,Shield volcano,D1,31.931,130.864
-21.32997735,64.18001028,124,368,1701-05=,Hengill,Iceland-SW,Radiocarbon,803,Crater rows,D6,64.18,-21.33
131.1060024,32.88100136,125,66,0802-11=,Aso,Kyushu-Japan,Historical,1592,Caldera,D1,32.881,131.106
131.2510066,33.08300096,126,67,0802-12=,Kuju,Kyushu-Japan,Historical,1791,Stratovolcanoes,D1,33.083,131.251
-22.22997887,64.87001284,127,369,1700-03=,Ljosufjoll,Iceland-W,Anthropology,988,Fissure vents,D6,64.87,-22.23
131.4320063,33.27999949,128,68,0802-13=,Tsurumi,Kyushu-Japan,Historical,1584,Lava domes,D6,33.28,131.432
-21.8299815,63.92000819,129,370,1701-04=,Brennisteinsfjoll,Iceland-SW,Historical,626,Crater rows,D6,63.92,-21.83
-22.09998206,63.93001035,130,371,1701-03=,Kr¡suv¡k,Iceland-SW,Historical,379,Crater rows,D6,63.93,-22.1
131.6000055,34.50000032,131,69,0803-001,Abu,Honshu-Japan,Holocene?,641,Shield volcanoes,?,34.5,131.6
-23.24997975,64.87001294,132,372,1700-02=,Lysuholl,Iceland-W,Holocene,540,Pyroclastic cones,U,64.87,-23.25
132.6199942,35.13000119,133,70,0803-002,Sanbe,Honshu-Japan,Radiocarbon,1126,Stratovolcano,D7,35.13,132.62
-22.49998186,63.88001115,134,373,1701-02=,Reykjanes,Iceland-SW,Historical,230,Crater rows,D6,63.88,-22.5
133.3300007,36.16999797,135,71,0803-003,Oki-Dogo,Honshu-Japan,Anthropology,151,Shield volcano,U,36.17,133.33
132.249999,19.17000734,136,72,0801-011,Unnamed,Taiwan-E of,Uncertain,-10,Submarine volcano ?,?,19.17,132.25
-23.7799826,64.80001329,137,374,1700-01=,Snaefellsjokull,Iceland-W,Radiocarbon,1448,Stratovolcano,D6,64.8,-23.78
136.7739999,36.15200025,138,73,0803-05=,Haku-san,Honshu-Japan,Historical,2702,Stratovolcano,D5,36.152,136.774
-23.3299784,63.67000832,139,375,1701-01=,Reykjaneshryggur,Iceland-SW,Historical,80,Submarine volcanoes,D1,63.67,-23.33
137.4999973,46.99999668,140,74,1002-01-,Sikhote-Alin,Russia-SE,Holocene,0,Volcanic field,U,47,137.5
175.9079596,52.34843244,141,376,1101-01-,Buldir,Aleutian Is,Holocene?,656,Stratovolcano,?,52.35,175.911
137.4999976,36.39999746,142,75,0803-071,Washiba-Kumonotaira,Honshu-Japan,Tephrochronology,2924,Shield volcanoes,D7,36.4,137.5
-170.4327317,63.59910784,143,377,1104-05-,Kookooligit Mountains,Alaska-W,Holocene,673,Shield volcano,U,63.6,-1.7043
137.4799933,35.8899993,144,76,0803-04=,On-take,Honshu-Japan,Historical,3063,Complex volcano,D1,35.89,137.48
177.5991366,52.10143864,145,378,1101-02-,Kiska,Aleutian Is,Historical,1220,Stratovolcano,D1,52.103,177.602
137.5929999,36.56800049,146,77,0803-08=,Tate-yama,Honshu-Japan,Historical,2621,Stratovolcano,D3,36.568,137.593
178.1331484,52.01344128,147,379,1101-03-,Segula,Aleutian Is,Holocene,1160,Stratovolcano,U,52.015,178.136
137.5570044,36.10300048,148,78,0803-06=,Norikura,Honshu-Japan,Radiocarbon,3026,Stratovolcanoes,D7,36.103,137.557
178.3271639,51.96844696,149,380,1101-04-,Davidof,Aleutian Is,Holocene?,328,Stratovolcano,?,51.97,178.33
137.5899939,36.22400264,150,79,0803-07=,Yake-dake,Honshu-Japan,Historical,2455,Stratovolcano,D1,36.224,137.59
-163.9227095,65.59928034,151,381,1104-06-,Imuruk Lake,Alaska-W,Radiocarbon,610,Shield volcanoes,D6,65.6,-1.6392
138.0389989,36.91799505,152,80,0803-09=,Niigata-Yake-yama,Honshu-Japan,Historical,2400,Lava dome,D1,36.918,138.039
178.5401765,51.94845034,153,382,1101-05-,Little Sitkin,Aleutian Is,Historical,1174,Stratovolcano,D3,51.95,178.543
138.1199925,36.8880001,154,81,0803-10=,Myoko,Honshu-Japan,Radiocarbon,2446,Stratovolcano,D7,36.888,138.12
179.5772552,51.92846526,155,383,1101-06-,Semisopochnoi,Aleutian Is,Historical,1221,Stratovolcano,D1,51.93,179.58
134.7499983,20.93000502,156,82,0801-01=,Unnamed,Taiwan-E of,Uncertain,-6000,Submarine volcano ?,?,20.93,134.75
-178.7926334,51.78852329,157,384,1101-07-,Gareloi,Aleutian Is,Historical,1573,Stratovolcano,D1,51.79,-1.7879
138.3000004,36.09999832,158,83,0803-031,Tateshina,Honshu-Japan,Holocene,2530,Stratovolcanoes,U,36.1,138.3
-178.1425786,51.88356653,159,385,1101-08-,Tanaga,Aleutian Is,Historical,1806,Stratovolcanoes,D2,51.885,-1.7814
138.5200015,36.70000043,160,84,0803-121,Shiga,Honshu-Japan,Holocene?,2041,Shield volcanoes,?,36.7,138.52
-162.1224758,63.44925643,161,386,1104-04-,St. Michael,Alaska-W,Anthropology,715,Shield volcanoes,U,63.45,-1.6212
138.5350009,36.61999481,162,85,0803-12=,Kusatsu-Shirane,Honshu-Japan,Historical,2171,Stratovolcanoes,D1,36.62,138.535
138.5259982,36.40299964,163,86,0803-11=,Asama,Honshu-Japan,Historical,2568,Complex volcano,D1,36.403,138.526
-178.002564,51.87156551,164,387,1101-09-,Takawangha,Aleutian Is,Holocene,1449,Stratovolcano,U,51.873,-1.78
139.3709991,41.50699823,165,87,0805-01=,Oshima-Oshima,Hokkaido-Japan,Historical,737,Stratovolcano,D4,41.507,139.371
-177.432511,51.90859102,166,388,1101-10-,Bobrof,Aleutian Is,Holocene?,738,Stratovolcano,?,51.91,-1.7743
138.8809939,36.47400258,167,88,0803-122,Haruna,Honshu-Japan,Anthropology,1449,Stratovolcano,D6,36.474,138.881
-164.4723581,61.42921002,168,389,1104-03-,Ingakslugwat Hills,Alaska-W,Holocene,190,Cinder cones,U,61.43,-1.6447
138.731,35.35799797,169,89,0803-03=,Fuji,Honshu-Japan,Historical,3776,Stratovolcano,D4,35.358,138.731
-177.162522,51.92159917,170,390,1101-11-,Kanaga,Aleutian Is,Historical,1307,Stratovolcano,D1,51.923,-1.7716
139.1959962,36.55699511,171,90,0803-13=,Akagi,Honshu-Japan,Uncertain,1828,Stratovolcano,?,36.557,139.196
-166.3322812,60.0191986,172,391,1104-02-,Nunivak Island,Alaska-W,Holocene,511,Shield volcano,U,60.02,-1.6633
139.2889985,36.95199927,173,91,0803-131,Hiuchi,Honshu-Japan,Historical,2356,Stratovolcano,D5,36.952,139.289
-176.7424934,51.9426182,174,392,1101-111,Moffett,Aleutian Is,Holocene?,1196,Stratovolcano,?,51.944,-1.7674
139.7299925,39.94999948,175,92,0803-262,Megata,Honshu-Japan,Tephrochronology,291,Maars,D7,39.95,139.73
-170.3023872,57.17903417,176,393,1104-01-,St. Paul Island,Alaska-W,Radiocarbon,203,Shield volcano,D7,57.18,-1.703
139.0239992,35.22999966,177,93,0803-02=,Hakone,Honshu-Japan,Radiocarbon,1438,Complex volcano,D7,35.23,139.024
-176.5924996,51.98662074,178,394,1101-112,Adagdak,Aleutian Is,Holocene?,610,Stratovolcano,?,51.988,-1.7659
-176.132493,52.07465636,179,395,1101-12-,Great Sitkin,Aleutian Is,Historical,1740,Stratovolcano,D1,52.076,-1.7613
139.3789948,36.79599727,180,94,0803-14=,Nikko-Shirane,Honshu-Japan,Historical,2578,Shield volcano,D3,36.796,139.379
139.8789946,39.93099849,181,95,0803-261,Kanpu,Honshu-Japan,Radiocarbon,355,Stratovolcano,D7,39.931,139.879
-175.5024577,52.17568868,182,396,1101-13-,Kasatochi,Aleutian Is,Historical,314,Stratovolcano,D4,52.177,-1.755
139.0980043,34.90000175,183,96,0803-01=,Izu-Tobu,Honshu-Japan,Historical,1406,Pyroclastic cones,D1,34.9,139.098
-175.1324474,52.21870706,184,397,1101-14-,Koniuji,Aleutian Is,Uncertain,273,Stratovolcano,?,52.22,-1.7513
139.5789917,37.45000022,185,97,0803-151,Numazawa,Honshu-Japan,Radiocarbon,1100,Shield volcano,D7,37.45,139.579
-174.9324199,52.02870085,186,398,1101-15-,Sergief,Aleutian Is,Uncertain,560,Stratovolcano,?,52.03,-1.7493
139.4940003,36.7620007,187,98,0803-141,Nantai,Honshu-Japan,Holocene?,2486,Stratovolcano,?,36.762,139.494
-174.1524061,52.3797446,188,399,1101-16-,Atka,Aleutian Is,Historical,1533,Stratovolcanoes,D1,52.381,-1.7415
139.5099915,36.79199947,189,99,0803-142,Omanago Group,Honshu-Japan,Holocene,2367,Lava domes,U,36.792,139.51
139.156003,34.21599622,190,100,0804-03=,Kozu-shima,Izu Is-Japan,Historical,572,Lava domes,D6,34.216,139.156
-172.5124222,52.31379632,191,400,1101-18-,Seguam,Aleutian Is,Historical,1054,Stratovolcanoes,D1,52.315,-1.7251
140.0519987,39.09599965,192,101,0803-22=,Chokai,Honshu-Japan,Historical,2233,Stratovolcanoes,D1,39.096,140.052
-171.2523669,52.49885122,193,401,1101-19-,Amukta,Aleutian Is,Historical,1066,Stratovolcano,D1,52.5,-1.7125
139.2830018,34.51700244,194,102,0804-011,To-shima,Izu Is-Japan,Tephrochronology,508,Stratovolcano,D7,34.517,139.283
-171.1323718,52.57585852,195,402,1101-20-,Chagulak,Aleutian Is,Holocene,1142,Stratovolcano,U,52.577,-1.7113
140.4499935,42.11999704,196,103,0805-021,Nigorigawa,Hokkaido-Japan,Pleistocene-Fumarolic,356,Hydrothermal field,Q,42.12,140.45
-170.6223469,52.64188336,197,403,1101-21-,Yunaska,Aleutian Is,Historical,550,Shield volcano,D2,52.643,-1.7062
-170.052294,52.89294007,198,404,1101-23-,Carlisle,Aleutian Is,Historical,1620,Stratovolcano,D3,52.894,-1.7005
-169.7722648,53.06397585,199,405,1101-25-,Uliaga,Aleutian Is,Holocene,888,Stratovolcano,U,53.065,-1.6977
-170.1122915,52.74091295,200,406,1101-22-,Herbert,Aleutian Is,Holocene,1280,Stratovolcano,U,52.742,-1.7011
-169.9422781,52.82393222,201,407,1101-24-,Cleveland,Aleutian Is,Historical,1730,Stratovolcano,D1,52.825,-1.6994
-169.7222464,52.972961,202,408,1101-26-,Kagamil,Aleutian Is,Historical,893,Stratovolcano,D2,52.974,-1.6972
-148.4223734,64.06955136,203,409,1105-001,Buzzard Creek,Alaska-E,Radiocarbon,830,Tuff rings,D7,64.07,-1.4842
-168.0319699,53.92913786,204,410,1101-30-,Bogoslof,Aleutian Is,Historical,150,Submarine volcano,D1,53.93,-1.6803
-168.6920647,53.12904708,205,411,1101-27-,Vsevidof,Aleutian Is,Historical,2149,Stratovolcano,D3,53.13,-1.6869
-168.5320306,53.15605897,206,412,1101-28-,Recheschnoi,Aleutian Is,Holocene,1984,Stratovolcano,U,53.157,-1.6853
-61.63999607,12.30000123,207,619,1600-16=,Kick 'em Jenny,W Indies,Historical,-185,Submarine volcano,D1,12.3,-61.64
-61.66999485,12.15000157,208,620,1600-17=,St. Catherine,W Indies,Holocene,840,Stratovolcano,U,12.15,-61.67
-110.82001,19.30000211,209,621,1401-02=,Barcena,Mexico-Is,Historical,332,Cinder cones,D2,19.3,-1.1082
-96.52600796,19.80900107,210,622,1401-094,"Atlixcos, Los",Mexico,Holocene,800,Shield volcano,U,19.809,-96.526
-96.75000704,19.67000301,211,623,1401-095,Naolinco Volc Field,Mexico,Radiocarbon,2000,Pyroclastic cones,D7,19.67,-96.75
-99.75701157,19.72400387,212,624,1401-062,Jocotitlan,Mexico,Radiocarbon,3900,Stratovolcano,D6,19.724,-99.757
-97.45000417,19.68000324,213,625,1401-093,"Humeros, Los",Mexico,Holocene?,3150,Calderas,?,19.68,-97.45
-103.6200115,19.51400283,214,626,1401-04=,Colima,Mexico,Historical,3850,Stratovolcanoes,D1,19.514,-1.0362
-97.15000867,19.49200156,215,627,1401-096,Cofre de Perote,Mexico,Radiocarbon,4282,Shield volcano,D6,19.492,-97.15
-102.2500084,19.48000243,216,628,1401-06=,Michoacan-Guanajuato,Mexico,Historical,3860,Cinder cones,D2,19.48,-1.0225
-110.9500072,18.78000346,217,629,1401-021,Socorro,Mexico-Is,Historical,1050,Shield volcano,D1,18.78,-1.1095
-100.2500079,19.40000248,218,630,1401-061,Zitacuaro-Valle de Bravo,Mexico,Potassium-Argon,3500,Caldera,D7,19.4,-1.0025
-97.25000717,19.33000277,219,631,1401-097,"Gloria, La",Mexico,Holocene,3500,Volcanic field,U,19.33,-97.25
-98.70000448,19.3080015,220,632,1401-081,Papayo,Mexico,Holocene,3600,Lava dome,U,19.308,-98.7
-97.47000844,19.2700052,221,633,1401-092,Serdan-Oriental,Mexico,Holocene,3485,Tuff cones,U,19.27,-97.47
-98.03000614,19.23000237,222,634,1401-091,"Malinche, La",Mexico,Radiocarbon,4503,Stratovolcano,D7,19.23,-98.03
-97.27000381,19.15000243,223,635,1401-098,"Cumbres,  Las",Mexico,Radiocarbon,3940,Stratovolcano,D7,19.15,-97.27
-98.6420058,19.17900367,224,636,1401-082,Iztaccihuatl,Mexico,Holocene,5230,Stratovolcano,U,19.179,-98.642
-99.75801102,19.1080026,225,637,1401-07-,"Toluca, Nevado de",Mexico,Radiocarbon,4680,Stratovolcano,D7,19.108,-99.758
-99.13000489,19.08000272,226,638,1401-08=,Chichinautzin,Mexico,Radiocarbon,3930,Volcanic field,D6,19.08,-99.13
-97.26800491,19.03000537,227,639,1401-10=,"Orizaba, Pico de",Mexico,Historical,5675,Stratovolcano,D3,19.03,-97.268
-98.62200916,19.0230054,228,640,1401-09=,Popocatepetl,Mexico,Historical,5426,Stratovolcanoes,D1,19.023,-98.622
-95.16900535,18.57200317,229,641,1401-11=,San Martin,Mexico,Historical,1650,Shield volcano,D4,18.572,-95.169
-93.22800295,17.36000298,230,642,1401-12=,"Chichon, El",Mexico,Historical,1150,Lava domes,D1,17.36,-93.228
-86.90000592,16.1000024,231,643,1403-16-,Utila Island,Honduras,Holocene,74,Pyroclastic cones,U,16.1,-86.9
-87.98000806,14.98000126,232,644,1403-15-,"Yojoa, Lake",Honduras,Holocene,1090,Volcanic field,U,14.98,-87.98
-92.11200535,15.1300019,233,645,1401-13=,Tacana,Mexico,Historical,4060,Stratovolcano,D1,15.13,-92.112
-89.55000819,14.83000065,234,646,1402-20-,Chiquimula Volc Field,Guatemala,Holocene,1192,Cinder cones,U,14.83,-89.55
-91.90300566,15.03400311,235,647,1402-02=,Tajumulco,Guatemala,Holocene,4220,Stratovolcano,U,15.034,-91.903
-91.48000903,14.82000234,236,648,1402-04=,Almolonga,Guatemala,Historical,3197,Stratovolcano,D3,14.82,-91.48
-89.45000206,14.57000035,237,649,1402-21-,Quezaltepeque,Guatemala,Holocene,1200,Volcanic field,U,14.57,-89.45
-91.55200764,14.75600029,238,650,1402-03=,Santa Maria,Guatemala,Historical,3772,Stratovolcano,D1,14.756,-91.552
-89.63000242,14.55000085,239,651,1402-19-,Ipala,Guatemala,Holocene,1650,Stratovolcano,U,14.55,-89.63
-91.47900195,14.71000075,240,652,1402-05=,Santo Tom s,Guatemala,Pleistocene-Fumarolic,3542,Stratovolcanoes,Q,14.71,-91.479
-91.18900858,14.61200115,241,653,1402-07=,Toliman,Guatemala,Holocene,3158,Stratovolcano,U,14.612,-91.189
-91.1860026,14.58300181,242,654,1402-06=,Atitlan,Guatemala,Historical,3535,Stratovolcano,D3,14.583,-91.186
-89.68000548,14.42000165,243,655,1402-18-,Ixtepeque,Guatemala,Holocene,1292,Lava domes,U,14.42,-89.68
-89.90000676,14.43000093,244,656,1402-141,Tahual,Guatemala,Holocene,1716,Stratovolcano,U,14.43,-89.9
-89.78000398,14.40000214,245,657,1402-16-,Suchitan,Guatemala,Holocene,2042,Stratovolcanoes,U,14.4,-89.78
-90.87600496,14.50100201,246,658,1402-08=,Acatenango,Guatemala,Historical,3976,Stratovolcano,D1,14.501,-90.876
-90.74300169,14.4650027,247,659,1402-10=,Agua,Guatemala,Holocene,3760,Stratovolcano,U,14.465,-90.743
-90.88000276,14.47300022,248,660,1402-09=,Fuego,Guatemala,Historical,3763,Stratovolcano,D1,14.473,-90.88
-89.87000798,14.33000147,249,661,1402-15-,"Santiago, Cerro",Guatemala,Holocene,1192,Volcanic field,U,14.33,-89.87
-89.48000848,14.27000103,250,662,1403-001,San Diego,El Salvador,Holocene,781,Volcanic field,U,14.27,-89.48
-90.60100336,14.38100113,251,663,1402-11=,Pacaya,Guatemala,Historical,2552,Complex volcano,D1,14.381,-90.601
-90.00000527,14.30000269,252,664,1402-14-,Flores,Guatemala,Holocene,1600,Volcanic field,U,14.3,-90
-90.4000069,14.33000148,253,665,1402-111,Cuilapa-Barbarena,Guatemala,Holocene,1454,Volcanic field,U,14.33,-90.4
-89.73000855,14.12000138,254,666,1402-17-,Chingo,Guatemala,Holocene,1775,Stratovolcano,U,14.12,-89.73
-90.40700306,14.15600165,255,667,1402-12=,Tecuamburro,Guatemala,Radiocarbon,1845,Stratovolcano,D7,14.156,-90.407
-89.25000506,14.02000287,256,668,1403-051,"Cinotepeque, Cerro",El Salvador,Holocene,665,Volcanic field,U,14.02,-89.25
-89.6500067,14.05000262,257,669,1403-002,"Singuil, Cerro",El Salvador,Holocene,957,Cinder cones,U,14.05,-89.65
-90.10000377,14.0300012,258,670,1402-13-,Moyuta,Guatemala,Hot Springs,1662,Stratovolcano,U,14.03,-90.1
-89.12000777,13.90000009,259,671,1403-052,Guazapa,El Salvador,Holocene?,1438,Stratovolcano,?,13.9,-89.12
-89.5500082,13.87000035,260,672,1403-041,Coatepeque Caldera,El Salvador,Holocene,746,Caldera,U,13.87,-89.55
-89.78600832,13.89100122,261,673,1403-01=,Apaneca Range,El Salvador,Holocene,2036,Stratovolcanoes,U,13.891,-89.786
-89.63000242,13.85300206,262,674,1403-02=,Santa Ana,El Salvador,Historical,2381,Stratovolcano,D2,13.853,-89.63
-88.77000157,13.72000069,263,675,1403-071,Apastepeque Field,El Salvador,Holocene,700,Volcanic field,U,13.72,-88.77
-89.63300841,13.81300113,264,676,1403-03=,Izalco,El Salvador,Historical,1950,Stratovolcano,D1,13.813,-89.633
-89.29400379,13.73400254,265,677,1403-05=,San Salvador,El Salvador,Historical,1893,Stratovolcano,D2,13.734,-89.294
-89.05300641,13.67200225,266,678,1403-06=,Ilopango,El Salvador,Historical,450,Caldera,D3,13.672,-89.053
-88.83700294,13.59500065,267,679,1403-07=,San Vicente,El Salvador,Holocene,2182,Stratovolcano,U,13.595,-88.837
-88.3200045,13.47500168,268,680,1403-09=,Chinameca,El Salvador,Holocene,1228,Stratovolcano,U,13.475,-88.32
-88.50200376,13.4940027,269,681,1403-08=,Tecapa,El Salvador,Holocene,1593,Stratovolcano,U,13.494,-88.502
-88.1050081,13.42800174,270,682,1403-101,"Aramuaca, Laguna",El Salvador,Holocene,181,Maar,U,13.428,-88.105
-88.43000514,13.47000252,271,683,1403-082,"Tigre, El",El Salvador,Holocene,1640,Stratovolcano,U,13.47,-88.43
-88.26900198,13.43400226,272,684,1403-10=,San Miguel,El Salvador,Historical,2130,Stratovolcano,D1,13.434,-88.269
-86.40000579,13.17000032,273,685,1404-131,Esteli,Nicaragua,Holocene?,899,Fissure vents,?,13.17,-86.4
-87.63000187,13.33000213,274,686,1403-14-,"Zacate Grande, Isla",Honduras,Holocene,640,Stratovolcano,U,13.33,-87.63
-88.53200255,13.43500267,275,687,1403-072,Taburete,El Salvador,Holocene?,1172,Stratovolcano,?,13.435,-88.532
-88.47100552,13.41900096,276,688,1403-081,Usulutan,El Salvador,Holocene,1449,Stratovolcano,U,13.419,-88.471
-87.63000187,13.27000074,277,689,1403-13-,"Tigre, Isla el",Honduras,Holocene,783,Stratovolcano,U,13.27,-87.63
-87.8530015,13.27700262,278,690,1403-11=,Conchagua,El Salvador,Uncertain,1225,Stratovolcano,?,13.277,-87.853
-87.76500404,13.22000054,279,691,1403-12=,Conchaguita,El Salvador,Historical,505,Stratovolcano,D3,13.22,-87.765
-83.87000628,12.53000168,280,692,1404-14-,"Azul, Volcan",Nicaragua,Holocene,201,Cinder cones,U,12.53,-83.87
-87.57000429,12.9800007,281,693,1404-01=,Cosiguina,Nicaragua,Historical,872,Stratovolcano,D3,12.98,-87.57
-87.00400224,12.70200074,282,694,1404-02=,San Cristobal,Nicaragua,Historical,1745,Stratovolcano,D1,12.702,-87.004
-86.14200249,12.52999979,283,695,1404-132,"Ciguatepe, Cerro el",Nicaragua,Holocene?,603,Stratovolcano,?,12.53,-86.142
-86.84500562,12.60200128,284,696,1404-04=,Telica,Nicaragua,Historical,1061,Stratovolcanoes,D1,12.602,-86.845
-86.75000437,12.55000122,285,697,1404-06-,Rota,Nicaragua,Holocene,832,Stratovolcano,U,12.55,-86.75
-86.70200783,12.50599962,286,698,1404-07=,"Negro, Cerro",Nicaragua,Historical,728,Cinder cones,D1,12.506,-86.702
-86.68800789,12.4950009,287,699,1404-08=,"Pilas, Las",Nicaragua,Historical,1088,Complex volcano,D2,12.495,-86.688
-85.73000743,12.30000018,288,700,1404-133,"Lajas, Las",Nicaragua,Holocene?,926,Shield volcano,?,12.3,-85.73
-86.54000522,12.42200092,289,701,1404-09=,Momotombo,Nicaragua,Historical,1297,Stratovolcano,D2,12.422,-86.54
-86.34200712,12.24200056,290,702,1404-091,Apoyeque,Nicaragua,Radiocarbon,518,Pyroclastic shield,D7,12.242,-86.342
-86.32000394,12.12000078,291,703,1404-092,Nejapa-Miraflores,Nicaragua,Holocene,360,Fissure vents,U,12.12,-86.32
-86.16100732,11.98400011,292,704,1404-10=,Masaya,Nicaragua,Historical,635,Caldera,D1,11.984,-86.161
-85.98000751,11.91999996,293,705,1404-101,Granada,Nicaragua,Holocene,300,Fissure vents,U,11.92,-85.98
-85.96800647,11.82600103,294,706,1404-11=,Mombacho,Nicaragua,Holocene,1344,Stratovolcano,U,11.826,-85.968
-85.8200038,11.73000032,295,707,1404-111,Zapatera,Nicaragua,Holocene,629,Shield volcano,U,11.73,-85.82
-85.6220057,11.53799988,296,708,1404-12=,Concepcion,Nicaragua,Historical,1700,Stratovolcano,D1,11.538,-85.622
-85.51500341,11.44600175,297,709,1404-13-,Maderas,Nicaragua,Holocene,1394,Stratovolcano,U,11.446,-85.515
-85.47300359,10.9800001,298,710,1405-01=,Orosi,Costa Rica,Uncertain,1659,Stratovolcanoes,?,10.98,-85.473
-85.32400147,10.83000044,299,711,1405-02=,Rincon de la Vieja,Costa Rica,Historical,1916,Complex volcano,D1,10.83,-85.324
-85.1530038,10.74800159,300,712,1405-03=,Miravalles,Costa Rica,Historical,2028,Stratovolcano,D2,10.748,-85.153
-85.01500328,10.6730008,301,713,1405-031,Tenorio,Costa Rica,Holocene,1916,Stratovolcanoes,U,10.673,-85.015
-84.70300673,10.4630007,302,714,1405-033,Arenal,Costa Rica,Historical,1657,Stratovolcano,D1,10.463,-84.703
-84.9780007,10.45099966,303,715,1405-032,"Tilaran, Cerro",Costa Rica,Holocene?,634,Shield volcano,?,10.451,-84.978
-84.36600102,10.30000054,304,716,1405-034,Platanar,Costa Rica,Holocene,2267,Stratovolcanoes,U,10.3,-84.366
-84.23300537,10.20000013,305,717,1405-04=,Poas,Costa Rica,Historical,2708,Stratovolcano,D1,10.2,-84.233
-84.1000021,10.13500053,306,718,1405-05=,Barva,Costa Rica,Tephrochronology,2906,Complex volcano,D7,10.135,-84.1
-83.77000017,10.02999999,307,719,1405-07=,Turrialba,Costa Rica,Historical,3340,Stratovolcano,D3,10.03,-83.77
-168.1319758,53.42909976,308,413,1101-29-,Okmok,Aleutian Is,Historical,1073,Shield volcano,D1,53.43,-1.6813
-166.9219084,53.89014799,309,414,1101-31-,Makushin,Aleutian Is,Historical,1800,Stratovolcano,D1,53.891,-1.6692
-166.6719084,53.96713242,310,415,1101-311,Table Top-Wide Bay,Aleutian Is,Holocene,792,Cinder cones,U,53.968,-1.6667
139.2729921,34.39300193,311,104,0804-02=,Nii-jima,Izu Is-Japan,Historical,432,Lava domes,D6,34.393,139.273
140.3070034,40.65299841,312,105,0803-27=,Iwaki,Honshu-Japan,Historical,1625,Stratovolcano,D3,40.653,140.307
-152.4121937,61.63941321,313,416,1103-05-,Hayes,Alaska-SW,Radiocarbon,3034,Stratovolcano,D6,61.64,-1.5241
139.7799956,36.89699898,314,106,0803-143,Takahara,Honshu-Japan,Holocene,1795,Stratovolcano,D7,36.897,139.78
-165.9819672,54.13312905,315,417,1101-32-,Akutan,Aleutian Is,Historical,1303,Stratovolcano,D1,54.134,-1.6598
139.397992,34.72100095,316,107,0804-01=,Oshima,Izu Is-Japan,Historical,764,Stratovolcano,D1,34.721,139.398
140.6300013,42.88000278,317,108,0805-031,Niseko,Hokkaido-Japan,Tephrochronology,1154,Stratovolcanoes,D7,42.88,140.63
140.1799894,38.59999378,318,109,0803-191,Hijiori,Honshu-Japan,Radiocarbon,516,Caldera,D7,38.6,140.18
139.9660002,37.12200121,319,110,0803-15=,Nasu,Honshu-Japan,Historical,1915,Stratovolcanoes,D2,37.122,139.966
140.6809962,42.06100277,320,111,0805-02=,Komaga-take,Hokkaido-Japan,Historical,1131,Stratovolcano,D1,42.061,140.681
140.0760008,37.59799518,321,112,0803-16=,Bandai,Honshu-Japan,Historical,1819,Stratovolcano,D3,37.598,140.076
140.8200037,42.82999975,322,113,0805-032,Yotei,Hokkaido-Japan,Tephrochronology,1898,Stratovolcano,D7,42.83,140.82
140.8429987,42.54099837,323,114,0805-03=,Usu,Hokkaido-Japan,Historical,737,Stratovolcano,D1,42.541,140.843
139.5290039,34.07899904,324,115,0804-04=,Miyake-jima,Izu Is-Japan,Historical,815,Stratovolcano,D1,34.079,139.529
140.9159967,42.76699623,325,116,0805-033,Shiribetsu,Hokkaido-Japan,Holocene,1107,Stratovolcano,U,42.767,140.916
140.2479978,37.73199783,326,117,0803-18=,Azuma,Honshu-Japan,Historical,2035,Stratovolcanoes,D1,37.732,140.248
140.2859922,37.64400042,327,118,0803-17=,Adatara,Honshu-Japan,Historical,1718,Stratovolcanoes,D1,37.644,140.286
141.2499961,45.17999758,328,119,0805-041,Rishiri,Hokkaido-Japan,Radiocarbon,1721,Stratovolcano,D7,45.18,141.25
139.6049927,33.87100273,329,120,0804-041,Mikura-jima,Izu Is-Japan,Tephrochronology,851,Stratovolcano,D7,33.871,139.605
140.4429898,38.1409981,330,121,0803-19=,Zao,Honshu-Japan,Historical,1841,Complex volcano,D2,38.141,140.443
140.7609981,39.96099727,331,122,0803-26=,Akita-Yake-yama,Honshu-Japan,Historical,1366,Complex volcano,D1,39.961,140.761
140.8809931,40.65599677,332,123,0803-28=,Hakkoda Group,Honshu-Japan,Radiocarbon,1585,Stratovolcanoes,D,40.656,140.881
141.1629907,42.48899643,333,124,0805-034,Kuttara,Hokkaido-Japan,Tephrochronology,581,Stratovolcanoes,D3,42.489,141.163
140.8029903,39.75799822,334,125,0803-23=,Akita-Komaga-take,Honshu-Japan,Historical,1637,Stratovolcanoes,D1,39.758,140.803
140.9199946,40.46999981,335,126,0803-271,Towada,Honshu-Japan,Historical,1159,Caldera,D6,40.47,140.92
141.0559961,41.43599914,336,127,0803-30-,Mutsu-Hiuchi-dake,Honshu-Japan,Pleistocene-Fumarolic,781,Stratovolcano,Q,41.436,141.056
140.8569911,39.95500057,337,128,0803-25=,Hachimantai,Honshu-Japan,Holocene?,1614,Stratovolcano,?,39.955,140.857
139.6799896,33.40000602,338,129,0804-042,Kurose Hole,Izu Is-Japan,Holocene?,-107,Submarine volcano,?,33.4,139.68
141.1699945,41.80199636,339,130,0805-011,E-san,Hokkaido-Japan,Historical,618,Stratovolcano,D3,41.802,141.17
140.7319912,38.7330008,340,131,0803-20=,Narugo,Honshu-Japan,Historical,470,Caldera,D6,38.733,140.732
141.1239893,41.27599934,341,132,0803-29=,Osore-yama,Honshu-Japan,Historical,879,Stratovolcano,D4,41.276,141.124
140.792004,38.95799921,342,133,0803-21=,Kurikoma,Honshu-Japan,Historical,1628,Stratovolcano,D2,38.958,140.792
141.329998,42.69999873,343,134,0805-04=,Shikotsu,Hokkaido-Japan,Historical,1320,Caldera,D1,42.7,141.33
141.0039942,39.84999725,344,135,0803-24=,Iwate,Honshu-Japan,Historical,2041,Complex volcano,D2,39.85,141.004
139.7689941,33.13000183,345,136,0804-05=,Hachijo-jima,Izu Is-Japan,Historical,854,Stratovolcanoes,D5,33.13,139.769
139.7619903,32.45399954,346,137,0804-06=,Aoga-shima,Izu Is-Japan,Historical,423,Stratovolcano,D4,32.454,139.762
139.850003,32.10000337,347,138,0804-061,Myojin Knoll,Izu Is-Japan,Holocene?,360,Submarine volcano,?,32.1,139.85
139.919995,31.88000031,348,139,0804-07=,Bayonnaise Rocks,Izu Is-Japan,Historical,11,Submarine volcano,D1,31.88,139.92
140.0539977,31.4360002,349,140,0804-08=,Smith Rock,Izu Is-Japan,Historical,136,Submarine volcano,D2,31.436,140.054
142.6899982,43.41599817,350,141,0805-05=,Tokachi,Hokkaido-Japan,Historical,2077,Stratovolcanoes,D1,43.416,142.69
142.8579974,43.66099704,351,142,0805-06=,Daisetsu,Hokkaido-Japan,Tephrochronology,2290,Stratovolcanoes,D6,43.661,142.858
140.3059965,30.48000113,352,143,0804-09=,Tori-shima,Izu Is-Japan,Historical,394,Stratovolcano,D1,30.48,140.306
143.0359911,43.45299692,353,144,0805-061,Nipesotsu-Upepesanke,Hokkaido-Japan,Historical,2013,Lava domes,D3,43.453,143.036
143.0959887,43.31199812,354,145,0805-062,Shikaribetsu Group,Hokkaido-Japan,Holocene?,1430,Lava domes,?,43.312,143.096
144.0129958,43.38399672,355,146,0805-07=,Akan,Hokkaido-Japan,Historical,1499,Caldera,D1,43.384,144.013
144.4299879,43.54999705,356,147,0805-08=,Kutcharo,Hokkaido-Japan,Tephrochronology,999,Caldera,D6,43.55,144.43
144.5649976,43.56999751,357,148,0805-081,Mashu,Hokkaido-Japan,Radiocarbon,855,Caldera,D6,43.57,144.565
143.7299872,66.42999267,358,149,1001-03-,Balagan-Tas,Russia-NE,Historical,993,Cinder cone,D4,66.43,143.73
140.8820004,27.27400084,359,150,0804-092,Nishino-shima,Volcano Is-Japan,Historical,38,Caldera,D1,27.274,140.882
145.126002,44.07299956,360,151,0805-082,Rausu,Hokkaido-Japan,Tephrochronology,1660,Stratovolcano,D3,44.073,145.126
145.1649882,44.13100202,361,152,0805-09=,Shiretoko-Iwo-zan,Hokkaido-Japan,Historical,1563,Stratovolcano,D2,44.131,145.165
145.5089975,43.84099738,362,153,0900-01=,Golovnin,Kuril Is,Historical,543,Caldera,D3,43.841,145.509
145.7359872,43.97599948,363,154,0900-02=,Mendeleev,Kuril Is,Historical,888,Stratovolcano,D3,43.976,145.736
141.1020015,26.12200078,364,155,0804-10=,Kaitoku Seamount,Volcano Is-Japan,Historical,-103,Submarine volcano,D1,26.122,141.102
146.1349891,44.41999581,365,156,0900-021,Smirnov,Kuril Is,Holocene,1189,Stratovolcano,U,44.42,146.135
146.2559913,44.3509994,366,157,0900-03=,Tiatia,Kuril Is,Historical,1819,Stratovolcano,D1,44.351,146.256
141.283993,25.42400486,367,158,0804-11=,Kita-Iwo-jima,Volcano Is-Japan,Historical,792,Stratovolcano,D2,25.424,141.284
146.935999,44.45899729,368,159,0900-04=,Berutarube,Kuril Is,Holocene,1221,Stratovolcano,U,44.459,146.936
141.2899897,24.75400308,369,160,0804-12=,Iwo-jima,Volcano Is-Japan,Historical,161,Caldera,D1,24.754,141.29
146.9939976,44.60799933,370,161,0900-041,Lvinaya Past,Kuril Is,Radiocarbon,528,Stratovolcano,D7,44.608,146.994
147.1349888,44.80500169,371,162,0900-05=,Atsonupuri,Kuril Is,Historical,1206,Stratovolcano,D2,44.805,147.135
147.2079868,45.02999629,372,163,0900-061,Unnamed,Kuril Is,Uncertain,-930,Submarine volcano,?,45.03,147.208
147.3419895,44.83299776,373,164,0900-06-,Bogatyr Ridge,Kuril Is,Holocene,1634,Stratovolcano,U,44.833,147.342
141.4190028,24.41400304,374,165,0804-121,Kita-Fukutokutai,Volcano Is-Japan,Historical,-73,Submarine volcano,D2,24.414,141.419
141.484997,24.28000611,375,166,0804-13=,Fukutoku-Okanoba,Volcano Is-Japan,Historical,-14,Submarine volcano,D1,24.28,141.485
147.9249971,45.33799871,376,167,0900-09=,Chirip,Kuril Is,Historical,1587,Stratovolcanoes,D3,45.338,147.925
147.9219911,45.02599852,377,168,0900-07=,Grozny Group,Kuril Is,Historical,1211,Complex volcanoes,D1,45.026,147.922
148.0239961,45.09699765,378,169,0900-08=,Baransky,Kuril Is,Historical,1132,Stratovolcano,D2,45.097,148.024
148.35,45.2499975,379,170,0900-091,Golets-Tornyi Group,Kuril Is,Holocene?,442,Pyroclastic cones,?,45.25,148.35
141.9399987,23.49700541,380,171,0804-131,Minami-Hiyoshi,Volcano Is-Japan,Historical,-30,Submarine volcano,D1,23.497,141.94
-152.2521593,61.29840984,381,418,1103-04-,Spurr,Alaska-SW,Historical,3374,Stratovolcano,D1,61.299,-1.5225
148.8499998,45.49999746,382,172,0900-11-,Demon,Kuril Is,Holocene,1205,Stratovolcano,U,45.5,148.85
148.842996,45.38699853,383,173,0900-10=,Medvezhia,Kuril Is,Historical,1125,Somma volcano,D1,45.387,148.843
142.3079948,23.07500465,384,174,0804-132,Nikko,Volcano Is-Japan,Uncertain,-391,Submarine volcano,?,23.075,142.308
149.6799861,45.76999788,385,175,0900-111,Ivao Group,Kuril Is,Holocene,1426,Cinder cones,U,45.77,149.68
149.8299952,45.87999847,386,176,0900-112,Rudakov,Kuril Is,Holocene?,542,Stratovolcano,?,45.88,149.83
149.9199915,45.92999389,387,177,0900-113,Tri Sestry,Kuril Is,Holocene?,998,Stratovolcano,?,45.93,149.92
150.0499963,46.04199719,388,178,0900-12=,Kolokol Group,Kuril Is,Historical,1328,Somma volcanoes,D1,46.042,150.05
-164.6519809,54.51710135,389,419,1101-34-,Westdahl,Aleutian Is,Historical,1654,Stratovolcano ?,D1,54.518,-1.6465
150.4999932,46.09999585,390,179,0900-13-,Unnamed,Kuril Is,Uncertain,-100,Submarine volcano ?,?,46.1,150.5
150.874993,46.524995,391,180,0900-15=,Chirpoi,Kuril Is,Historical,742,Caldera,D1,46.525,150.875
-164.4319797,54.64910897,392,420,1101-35-,Fisher,Aleutian Is,Historical,1112,Stratovolcano,D3,54.65,-1.6443
151.2799917,46.46999854,393,181,0900-16-,Unnamed,Kuril Is,Hydrophonic,-502,Submarine volcano,D1,46.47,151.28
144.4799913,26.13000398,394,182,0804-093,Unnamed,Volcano Is-Japan,Uncertain,-3200,Submarine volcano ?,?,26.13,144.48
151.7499927,46.82999909,395,183,0900-17=,Goriaschaia Sopka,Kuril Is,Historical,891,Stratovolcano,D2,46.83,151.75
151.7799915,46.82000077,396,184,0900-161,Milne,Kuril Is,Holocene,1540,Somma volcano,U,46.82,151.78
151.9499896,46.92499266,397,185,0900-18=,Zavaritzki Caldera,Kuril Is,Historical,624,Caldera,D2,46.925,151.95
152.1199877,47.01999769,398,186,0900-19=,Prevo Peak,Kuril Is,Historical,1360,Stratovolcano,D3,47.02,152.12
152.2299883,47.11999614,399,187,0900-191,Urataman,Kuril Is,Holocene,678,Somma volcano,U,47.12,152.23
142.8999898,21.00000453,400,188,0804-136,Unnamed,Mariana Is-C Pacific,Uncertain,0,Submarine volcano ?,?,21,142.9
6.850021497,50.17000072,401,189,0100-01-,West Eifel Volc Field,Germany,Radiocarbon,600,Maars,D7,50.17,6.85
152.4749985,47.34999564,402,190,0900-20=,Ketoi,Kuril Is,Historical,1172,Stratovolcano,D2,47.35,152.475
143.469997,21.93000454,403,191,0804-133,Fukujin,Volcano Is-Japan,Historical,-217,Submarine volcano,D1,21.93,143.47
152.7999954,47.5199976,404,192,0900-21=,Ushishur,Kuril Is,Historical,401,Caldera,D3,47.52,152.8
152.9199904,47.5999956,405,193,0900-211,Srednii,Kuril Is,Holocene,36,Submarine volcano,U,47.6,152.92
153.0199965,47.76999755,406,194,0900-22=,Rasshua,Kuril Is,Historical,956,Stratovolcano,D2,47.77,153.02
153.2499921,48.29199679,407,195,0900-25=,Raikoke,Kuril Is,Historical,551,Stratovolcano,D2,48.292,153.25
153.1999891,48.09199608,408,196,0900-24=,Sarychev Peak,Kuril Is,Historical,1496,Stratovolcano,D1,48.092,153.2
153.4799877,48.97999637,409,197,0900-26=,Chirinkotan,Kuril Is,Historical,724,Stratovolcano,D1,48.98,153.48
143.6369891,21.60000281,410,198,0804-135,Minami Kasuga,Volcano Is-Japan,Holocene,-170,Submarine volcano,U,21.6,143.637
143.7100024,21.76500557,411,199,0804-134,Kasuga,Volcano Is-Japan,Historical,-598,Submarine volcano,D2,21.765,143.71
153.3299939,48.07999886,412,200,0900-23=,Unnamed,Kuril Is,Historical,-150,Submarine volcano,D2,48.08,153.33
143.1999928,20.30000208,413,201,0804-137,Unnamed,Mariana Is-C Pacific,Uncertain,0,Submarine volcano ?,?,20.3,143.2
153.9299845,48.95799704,414,202,0900-27=,Ekarma,Kuril Is,Historical,1170,Stratovolcano,D1,48.958,153.93
154.0199961,48.76999736,415,203,0900-28=,Kuntomintar,Kuril Is,Pleistocene-Fumarolic,828,Hydrothermal field,Q,48.77,154.02
154.1749948,48.87499689,416,204,0900-29=,Sinarka,Kuril Is,Historical,934,Stratovolcano,D3,48.875,154.175
154.5079872,49.11999579,417,205,0900-30=,Kharimkotan,Kuril Is,Historical,1145,Stratovolcano,D2,49.12,154.508
154.6999885,49.34999528,418,206,0900-31=,Tao-Rusyr Caldera,Kuril Is,Historical,1325,Stratovolcano,D2,49.35,154.7
-163.1420479,55.42312258,419,421,1101-39-,Amak,Aleutian Is,Historical,488,Stratovolcano,D4,55.424,-1.6314
-163.9720036,54.75511564,420,422,1101-36-,Shishaldin,Aleutian Is,Historical,2857,Stratovolcano,D1,54.756,-1.6397
-163.7220037,54.76411454,421,423,1101-37-,Isanotski,Aleutian Is,Uncertain,2446,Stratovolcano,U,54.765,-1.6372
-152.7423016,60.48440683,422,424,1103-03-,Redoubt,Alaska-SW,Historical,3108,Stratovolcano,D1,60.485,-1.5274
-163.5820043,54.79911441,423,425,1101-38-,Roundtop,Aleutian Is,Holocene,1871,Stratovolcano,U,54.8,-1.6358
-162.8120307,55.08112361,424,426,1102-01-,Frosty,Alaska Peninsula,Holocene,2012,Stratovolcanoes,U,55.082,-1.6281
-153.0922463,60.0313848,425,427,1103-02-,Iliamna,Alaska-SW,Historical,3053,Stratovolcano,D3,60.032,-1.5309
-162.0720559,55.34013782,426,428,1102-02-,Emmons Lake,Alaska Peninsula,Holocene,1436,Caldera,U,55.341,-1.6207
-161.8420298,55.45214879,427,429,1102-04-,Pavlof Sister,Alaska Peninsula,Historical,2142,Stratovolcano,D4,55.453,-1.6184
-161.8820383,55.41914403,428,430,1102-03-,Pavlof,Alaska Peninsula,Historical,2519,Stratovolcano,D1,55.42,-1.6188
-162.2720528,55.16712603,429,431,1102-011,Dutton,Alaska Peninsula,Holocene,1506,Stratovolcano,U,55.168,-1.6227
-161.2120403,55.64016766,430,432,1102-05-,Dana,Alaska Peninsula,Radiocarbon,1354,Stratovolcano,D7,55.641,-1.6121
-153.4321354,59.36234793,431,433,1103-01-,Augustine,Alaska-SW,Historical,1252,Lava domes,D1,59.363,-1.5343
-156.5121057,57.83127686,432,434,1102-131,Ukinrek Maars,Alaska Peninsula,Historical,91,Maars,D1,57.832,-1.5651
-160.0020643,55.92919216,433,435,1102-051,Stepovak,Alaska Peninsula,Holocene,1555,Cinder cones,U,55.93,-1.6
-159.7920729,56.01019728,434,436,1102-06-,Kupreanof,Alaska Peninsula,Historical,1895,Stratovolcano,D1,56.011,-1.5979
-158.1720783,56.87923126,435,437,1102-09-,Aniakchak,Alaska Peninsula,Historical,1341,Caldera,D2,56.88,-1.5817
-158.7820635,56.55121301,436,438,1102-08-,Black Peak,Alaska Peninsula,Radiocarbon,1032,Stratovolcano,D7,56.552,-1.5878
-156.3621118,57.75027943,437,439,1102-13-,Ugashik-Peulik,Alaska Peninsula,Historical,1474,Stratovolcano,D3,57.751,-1.5636
-159.3820236,56.16920154,438,440,1102-07-,Veniaminof,Alaska Peninsula,Historical,2507,Stratovolcano,D1,56.17,-1.5938
-155.0920622,58.35330692,439,441,1102-19-,Griggs,Alaska Peninsula,Holocene,2317,Stratovolcano,U,58.354,-1.5509
-155.3620816,58.17130005,440,442,1102-14-,Martin,Alaska Peninsula,Historical,1863,Stratovolcano,D2,58.172,-1.5536
-155.1520597,58.26930347,441,443,1102-18-,Novarupta,Alaska Peninsula,Historical,841,Caldera,D2,58.27,-1.5515
-155.252081,58.19430269,442,444,1102-15-,Mageik,Alaska Peninsula,Holocene,2165,Stratovolcano,U,58.195,-1.5525
-155.1020719,58.23530308,443,445,1102-16-,Trident,Alaska Peninsula,Historical,1864,Stratovolcano,D1,58.236,-1.551
-154.9620725,58.27930563,444,446,1102-17-,Katmai,Alaska Peninsula,Historical,2047,Stratovolcano,D2,58.28,-1.5496
-154.6820432,58.33531305,445,447,1102-20-,Snowy Mountain,Alaska Peninsula,Holocene,2162,Stratovolcanoes,U,58.336,-1.5468
-153.54209,58.85433327,446,448,1102-27-,Douglas,Alaska Peninsula,Holocene,2140,Stratovolcano,U,58.855,-1.5354
-154.4420531,58.41731763,447,449,1102-21-,Denison,Alaska Peninsula,Uncertain,2287,Stratovolcano,?,58.418,-1.5444
-153.6720948,58.76933036,448,450,1102-26-,Fourpeaked,Alaska Peninsula,Holocene?,2105,Stratovolcano,?,58.77,-1.5367
-154.0220855,58.60732394,449,451,1102-25-,Kaguyak,Alaska Peninsula,Holocene,901,Stratovolcano,D7,58.608,-1.5402
-154.4020445,58.42931868,450,452,1102-22-,Steller,Alaska Peninsula,Holocene,2272,Stratovolcano,U,58.43,-1.544
-154.3520568,58.45231749,451,453,1102-23-,Kukak,Alaska Peninsula,Fumarolic,2043,Stratovolcano,U,58.453,-1.5435
-156.9920858,57.13426299,452,454,1102-11-,Chiginagak,Alaska Peninsula,Historical,2221,Stratovolcano,D1,57.135,-1.5699
-157.1820729,57.01825803,453,455,1102-10-,Yantarni,Alaska Peninsula,Tephrochronology,1345,Stratovolcano,D7,57.019,-1.5718
-155.4220942,57.86929812,454,456,1102-132,Unnamed,Alaska Peninsula,Holocene,300,Lava dome,U,57.87,-1.5542
-156.7420859,57.20227145,455,457,1102-12-,Kialagvik,Alaska Peninsula,Holocene,1677,Stratovolcano,U,57.203,-1.5674
-144.1321496,62.21958423,456,458,1105-01-,Sanford,Alaska-E,Holocene?,4949,Shield volcano,?,62.22,-1.4413
-144.0221335,61.99956015,457,459,1105-02-,Wrangell,Alaska-E,Historical,4317,Shield volcano,D2,62,-1.4402
-143.0821464,62.12960714,458,460,1105-021,Gordon,Alaska-E,Holocene?,2755,Cinder cones,?,62.13,-1.4308
-137.3821039,62.92974081,459,461,1200-01-,Fort Selkirk,Canada,Holocene?,1239,Volcanic field,?,62.93,-1.3738
-141.7520677,61.37960739,460,462,1105-03-,Churchill,Alaska-E,Radiocarbon,5005,Stratovolcano,D6,61.38,-1.4175
-34.49998796,49.00000964,461,463,1801-02=,Unnamed,Atlantic-N,Historical,-1650,Submarine volcano,D3,49,-34.5
-13.62998278,29.0300047,462,464,1803-06-,Lanzarote,Canary Is,Historical,670,Fissure vents,D3,29.03,-13.63
-14.01998608,28.35800562,463,465,1803-05-,Fuerteventura,Canary Is,Holocene,529,Fissure vents,U,28.358,-14.02
-25.82998604,39.95000873,464,466,1801-03=,Unnamed,Atlantic-N,Uncertain,-2835,Submarine volcano,?,39.95,-25.83
-135.4219121,60.4196971,465,467,1200-02-,Alligator Lake,Canada,Holocene,2217,Volcanic field,U,60.42,-1.3542
-15.57998302,28.00000578,466,468,1803-04-,Gran Canaria,Canary Is,Radiocarbon,1950,Fissure vents,D7,28,-15.58
-25.31998389,37.77000806,467,469,1802-10=,Furnas,Azores,Historical,805,Stratovolcano,D5,37.77,-25.32
-133.321829,59.67973009,468,470,1200-03-,Atlin Volc Field,Canada,Holocene,1880,Cinder cones,U,59.68,-1.3332
-25.46998546,37.77000806,469,471,1802-09=,Agua de Pau,Azores,Historical,947,Stratovolcano,D5,37.77,-25.47
-25.66998627,37.78000639,470,472,1802-081,Unnamed,Azores,Historical,350,Pyroclastic cones,D5,37.78,-25.67
-25.77998691,37.87000656,471,473,1802-08=,Sete Cidades,Azores,Historical,856,Stratovolcano,D3,37.87,-25.78
-16.64098694,28.27100765,472,474,1803-03-,Tenerife,Canary Is,Historical,3715,Stratovolcano,D2,28.271,-16.641
-25.87998542,37.60000606,473,475,1802-11=,Monaco Bank,Azores,Historical,-197,Submarine volcano,D2,37.6,-25.88
-26.6299875,38.23000726,474,476,1802-07=,Don Joao de Castro Bank,Azores,Historical,-14,Submarine volcano,D4,38.23,-26.63
-27.31998438,38.73000736,475,477,1802-05=,Terceira,Azores,Historical,1023,Stratovolcanoes,D1,38.73,-27.32
-27.96998607,39.02000835,476,478,1802-04=,Graciosa,Azores,Holocene,402,Stratovolcano,U,39.02,-27.97
-130.5818077,59.36977873,477,479,1200-031,Tuya Volc Field,Canada,Holocene,2123,Volcanic field,U,59.37,-1.3058
-28.07998673,38.65000936,478,480,1802-03=,San Jorge,Azores,Historical,1053,Fissure vent,D2,38.65,-28.08
-17.82998638,28.57000559,479,481,1803-01-,La Palma,Canary Is,Historical,2426,Stratovolcanoes,D1,28.57,-17.83
-131.9717458,58.59971703,480,482,1200-04-,Heart Peaks,Canada,Holocene?,2012,Shield volcano,?,58.6,-1.3197
-28.39998843,38.47000903,481,483,1802-02=,Pico,Azores,Historical,2351,Stratovolcano,D4,38.47,-28.4
-28.72998653,38.60000632,482,484,1802-01=,Fayal,Azores,Historical,1043,Stratovolcano,D2,38.6,-28.73
-131.3517505,58.41972445,483,485,1200-05-,Level Mountain,Canada,Holocene?,2190,Shield volcano,?,58.42,-1.3135
-135.7518205,57.04964477,484,486,1105-04-,Edgecumbe,Alaska-E,Radiocarbon,970,Stratovolcanoes,D7,57.05,-1.3575
-18.02998529,27.73000529,485,487,1803-02-,Hierro,Canary Is,Radiocarbon,1500,Shield volcano,D4,27.73,-18.03
-31.06998729,39.67000626,486,488,1802-002,Corvo,Azores,Holocene,715,Stratovolcano,U,39.67,-31.07
-130.6317336,57.71972761,487,489,1200-06-,Edziza,Canada,Radiocarbon,2786,Stratovolcano,D6,57.72,-1.3063
-31.16998772,39.40000958,488,490,1802-001,Flores,Azores,Radiocarbon,915,Stratovolcano,D7,39.4,-31.17
-130.6817212,57.42971525,489,491,1200-07-,Spectrum Range,Canada,Holocene,2430,Shield volcano,U,57.43,-1.3068
-133.1017497,56.49965737,490,492,1105-05-,Duncan Canal,Alaska-E,Holocene,15,Volcanic field,U,56.5,-1.331
-131.2817271,56.77968693,491,493,1200-08-,Hoodoo Mountain,Canada,Tephrochronology,1850,Subglacial volcano,D7,56.78,-1.3128
-130.5517311,56.57969009,492,494,1200-09-,Iskut-Unuk River Cones,Canada,Radiocarbon,1880,Cinder cones,D3,56.58,-1.3055
-133.3016851,55.24965735,493,495,1105-06-,Tlevak Strait-Suemez Is.,Alaska-E,Holocene,50,Volcanic field,U,55.25,-1.333
-131.0517154,55.3196688,494,496,1105-07-,Behm Canal-Rudyerd Bay,Alaska-E,Holocene?,500,Cinder cones,?,55.32,-1.3105
-128.9016906,55.11977897,495,497,1200-10-,Tseax River Cone,Canada,Radiocarbon,609,Pyroclastic cone,D4,55.12,-1.289
-130.2317077,54.69971957,496,498,1200-11-,Crow Lagoon,Canada,Holocene,335,Pyroclastic cone,U,54.7,-1.3023
-38.07999153,38.75000809,497,499,1801-04=,Unnamed,Atlantic-N,Historical,-4200,Submarine volcano,D3,38.75,-38.08
-128.7316304,52.49975713,498,500,1200-12-,Milbanke Sound Group,Canada,Holocene,335,Cinder cones,U,52.5,-1.2873
-123.73002,52.90000727,499,501,1200-14-,Nazko,Canada,Radiocarbon,1230,Cinder cones,D7,52.9,-1.2373
-124.7000136,52.47000683,500,502,1200-13-,Satah Mountain,Canada,Holocene,1921,Volcanic field,U,52.47,-1.247
-126.3000196,51.43000568,501,503,1200-16-,Silverthrone,Canada,Holocene,3160,Caldera,U,51.43,-1.263
-120.5700155,52.33000795,502,504,1200-15-,Wells Gray-Clearwater,Canada,Dendrochronology,2015,Cinder cones,D5,52.33,-1.2057
-123.4000174,50.80000494,503,505,1200-17-,Bridge River Cones,Canada,Holocene,2500,Volcanic field,U,50.8,-1.234
-123.5000158,50.63000675,504,506,1200-18-,Meager,Canada,Radiocarbon,2680,Complex volcano,D7,50.63,-1.235
-123.0313266,49.91983603,505,507,1200-19-,Garibaldi Lake,Canada,Holocene,2316,Volcanic field,U,49.92,-1.2303
-123.0013278,49.84983634,506,508,1200-20-,Garibaldi,Canada,Radiocarbon,2678,Stratovolcano,D7,49.85,-1.23
-121.8112714,48.77684982,507,509,1201-01=,Baker,US-Washington,Historical,3285,Stratovolcanoes,D3,48.777,-1.2181
-129.5815128,46.51978404,508,510,1301-01-,CoAxial Segment,Pacific-NE,Historical,-2400,Submarine volcano,D1,46.52,-1.2958
-121.1112284,48.11184513,509,511,1201-02-,Glacier Peak,US-Washington,Tephrochronology,3213,Stratovolcano,D4,48.112,-1.2111
-130.0015261,45.9497881,510,512,1301-011,Axial Seamount,Pacific-NE,Historical,-1410,Submarine volcano,D1,45.95,-1.3
-121.75122,46.86983297,511,513,1201-03-,Rainier,US-Washington,Dendrochronology,4392,Stratovolcano,D3,46.87,-1.2175
-130.3015137,44.82980436,512,514,1301-02-,Cleft Segment,Pacific-NE,Historical,-2140,Submarine volcano,D1,44.83,-1.303
-122.1812202,46.19983853,513,515,1201-05-,St. Helens,US-Washington,Historical,2549,Stratovolcano,D1,46.2,-1.2218
154.979987,50.19999739,514,207,0900-331,Shirinki,Kuril Is,Holocene,761,Stratovolcano,U,50.2,154.98
154.8079901,49.56999646,515,208,0900-32=,Nemo Peak,Kuril Is,Historical,1018,Caldera,D2,49.57,154.808
155.2499912,50.26999709,516,209,0900-34=,Fuss Peak,Kuril Is,Historical,1772,Stratovolcano,D3,50.27,155.25
155.5499941,50.85799822,517,210,0900-39=,Alaid,Kuril Is,Historical,2339,Stratovolcano,D1,50.858,155.55
155.3699863,50.12999774,518,211,0900-35=,Karpinsky Group,Kuril Is,Historical,1345,Cones,D2,50.13,155.37
155.4299838,50.24999665,519,212,0900-351,Lomonosov Group,Kuril Is,Holocene,1681,Cinder cones,U,50.25,155.43
155.4579837,50.32499739,520,213,0900-36=,Chikurachki,Kuril Is,Historical,1816,Stratovolcanoes,D1,50.325,155.458
157.4699907,55.54999486,521,214,1000-273,Cherpuk Group,Kamchatka,Holocene,1868,Pyroclastic cones,U,55.55,157.47
157.7999921,56.46999668,522,215,1000-36-,Bolshoi-Kekuknaysky,Kamchatka,Holocene?,1401,Shield volcanoes,?,56.47,157.8
157.3799945,54.74999578,523,216,1000-272,Khangar,Kamchatka,Radiocarbon,2000,Stratovolcano,D5,54.75,157.38
155.9699922,50.54999585,524,217,0900-37-,Vernadskii Ridge,Kuril Is,Holocene,1183,Cinder cones,U,50.55,155.97
156.0199952,50.67999689,525,218,0900-38=,Ebeko,Kuril Is,Historical,1156,Somma volcano,D1,50.68,156.02
157.779988,55.87999664,526,219,1000-30-,Bolshoi Payalpan,Kamchatka,Holocene?,1906,Shield volcanoes,?,55.88,157.78
157.729985,55.67999592,527,220,1000-28=,Ichinsky,Kamchatka,Holocene,3621,Stratovolcano,U,55.68,157.73
157.9799849,55.8199953,528,221,1000-29-,Maly Payalpan,Kamchatka,Holocene?,1802,Shield volcanoes,?,55.82,157.98
156.5499936,51.59999489,529,222,1000-021,Unnamed,Kamchatka,Holocene,298,Cinder cone,U,51.6,156.55
157.0199945,52.56999593,530,223,1000-081,Unnamed,Kamchatka,Holocene,610,Cinder cone,U,52.57,157.02
158.369984,56.36999446,531,224,1000-37-,Kulkev,Kamchatka,Holocene?,915,Shield volcano,?,56.37,158.37
158.5199931,56.56999519,532,225,1000-42-,Eggella,Kamchatka,Holocene?,1046,Shield volcano,?,56.57,158.52
158.3799939,56.07999742,533,226,1000-35-,Uksichan,Kamchatka,Holocene?,1692,Shield volcano,?,56.08,158.38
156.7499906,51.35699493,534,227,1000-02=,Koshelev,Kamchatka,Historical,1812,Stratovolcano,D5,51.357,156.75
156.7199918,51.09999501,535,228,1000-001,Mashkovtsev,Kamchatka,Holocene,503,Stratovolcano,U,51.1,156.72
158.379994,55.57999752,536,229,1000-33-,Kozyrevsky,Kamchatka,Holocene?,2016,Shield volcano,?,55.58,158.38
156.8699857,51.29999574,537,230,1000-01=,Kambalny,Kamchatka,Holocene,2156,Stratovolcano,U,51.3,156.87
158.669987,56.32999739,538,231,1000-38-,Geodesistoy,Kamchatka,Holocene?,1170,Shield volcano,?,56.33,158.67
157.3349969,52.54299934,539,232,1000-08=,Opala,Kamchatka,Radiocarbon,2475,Caldera,D6,52.543,157.335
156.9999905,51.4300006,540,233,1000-022,Diky Greben,Kamchatka,Radiocarbon,1070,Lava domes,D6,51.43,157
158.9499856,56.81999518,541,234,1000-43-,Unnamed,Kamchatka,Holocene?,1185,Shield volcano,?,56.82,158.95
157.3219965,52.14599244,542,235,1000-055,Ostanets,Kamchatka,Holocene,719,Shield volcanoes,U,52.146,157.322
158.8499949,56.39999708,543,236,1000-41-,Kekurny,Kamchatka,Holocene?,1377,Shield volcanoes,?,56.4,158.85
158.8299906,56.31999527,544,237,1000-39-,Anaun,Kamchatka,Holocene?,1828,Stratovolcano,?,56.32,158.83
158.4699904,55.19999654,545,238,1000-31-,Plosky,Kamchatka,Holocene?,1236,Shield volcano,?,55.2,158.47
157.1199856,51.44999725,546,239,1000-023,Kurile Lake,Kamchatka,Radiocarbon,104,Caldera,D7,51.45,157.12
157.427984,52.22000137,547,240,1000-056,Otdelniy,Kamchatka,Holocene,791,Shield volcanoes,U,52.22,157.428
157.5799919,52.62999733,548,241,1000-082,Tolmachev Dol,Kamchatka,Radiocarbon,1021,Cinder cones,D6,52.63,157.58
157.2699946,51.74999643,549,242,1000-042,Belenkaya,Kamchatka,Holocene,892,Stratovolcano,U,51.75,157.27
158.069997,53.9049948,550,243,1000-123,Bakening,Kamchatka,Tephrochronology,2278,Stratovolcano,D7,53.905,158.07
158.0499927,53.82999787,551,244,1000-122,Kostakan,Kamchatka,Holocene,1150,Cinder cones,D6,53.83,158.05
157.1999873,51.48999816,552,245,1000-03=,Ilyinsky,Kamchatka,Historical,1578,Stratovolcano,D2,51.49,157.2
158.649983,55.42999605,553,246,1000-32-,Akhtang,Kamchatka,Holocene?,1956,Shield volcano,?,55.43,158.65
157.3799952,51.87999748,554,247,1000-051,Ozernoy,Kamchatka,Holocene,562,Shield volcano,U,51.88,157.38
159.0299875,56.36999451,555,248,1000-40-,Krainy,Kamchatka,Holocene?,1554,Shield volcano,?,56.37,159.03
157.7799887,52.89999774,556,249,1000-087,Bolshe-Bannaya,Kamchatka,Holocene,1200,Lava domes,U,52.9,157.78
158.799992,55.64999724,557,250,1000-34-,Romanovka,Kamchatka,Holocene?,1442,Stratovolcano,?,55.65,158.8
157.3499964,51.64999799,558,251,1000-041,Kell,Kamchatka,Holocene,900,Stratovolcanoes,U,51.65,157.35
157.3229884,51.56999617,559,252,1000-04=,Zheltovsky,Kamchatka,Historical,1953,Stratovolcano,D1,51.57,157.323
157.529989,52.01999685,560,253,1000-052,Olkoviy Volc Group,Kamchatka,Holocene,681,Volcanic field,U,52.02,157.53
144.8999892,20.53000723,561,254,0804-14=,Farallon de Pajaros,Mariana Is-C Pacific,Historical,360,Stratovolcano,D1,20.53,144.9
157.529989,51.79999568,562,255,1000-05=,Ksudach,Kamchatka,Historical,1079,Stratovolcano,D2,51.8,157.53
158.3849841,53.90499483,563,256,1000-124,Zavaritsky,Kamchatka,Radiocarbon,1567,Cinder cones,D7,53.905,158.385
157.7029931,52.06299612,564,257,1000-053,Khodutka,Kamchatka,Radiocarbon,2090,Stratovolcanoes,D7,52.063,157.703
157.7869926,52.26299684,565,258,1000-057,Golaya,Kamchatka,Holocene,858,Stratovolcano,U,52.263,157.787
157.8269859,52.35499588,566,259,1000-058,Asacha,Kamchatka,Holocene,1910,Complex volcano,U,52.355,157.827
157.9299827,52.42999282,567,260,1000-059,Visokiy,Kamchatka,Holocene,1234,Stratovolcano,U,52.43,157.93
158.4499865,53.74999608,568,261,1000-121,Veer,Kamchatka,Tephrochronology,520,Cinder cones,D6,53.75,158.45
157.8489891,52.11299536,569,262,1000-054,Piratkovsky,Kamchatka,Holocene,1322,Stratovolcano,U,52.113,157.849
158.0299887,52.55799497,570,263,1000-07=,Gorely,Kamchatka,Historical,1829,Caldera,D1,52.558,158.03
159.5299873,56.51999605,571,264,1000-44-,Verkhovoy,Kamchatka,Holocene?,1400,Shield volcano,?,56.52,159.53
159.82999,57.2999947,572,265,1000-54-,Leutongey,Kamchatka,Holocene?,1333,Shield volcano,?,57.3,159.83
159.6699865,56.81999524,573,266,1000-46-,Cherny,Kamchatka,Holocene?,1778,Stratovolcano,?,56.82,159.67
159.6499823,56.69999633,574,267,1000-45-,Alney-Chashakondzha,Kamchatka,Tephrochronology,2598,Stratovolcano,D7,56.7,159.65
159.7799871,56.96999674,575,268,1000-49-,Bliznets,Kamchatka,Holocene?,1244,Stratovolcano,?,56.97,159.78
145.0299941,20.42000666,576,269,0804-141,Ahyi,Mariana Is-C Pacific,Seismicity,-137,Submarine volcano,D1,20.42,145.03
159.9699894,57.31999516,577,270,1000-55-,Tuzovsky,Kamchatka,Holocene?,1533,Shield volcanoes,?,57.32,159.97
158.2699941,52.82299813,578,271,1000-084,Barkhatnaya Sopka,Kamchatka,Tephrochronology,870,Lava domes,D7,52.823,158.27
159.7999914,56.84999402,579,272,1000-47-,Pogranychny,Kamchatka,Holocene?,1427,Shield volcanoes,?,56.85,159.8
158.2999928,52.87999733,580,273,1000-086,Unnamed,Kamchatka,Holocene,700,Shield volcanoes,U,52.88,158.3
159.9299809,57.09999398,581,274,1000-50-,Kebeney,Kamchatka,Holocene?,1527,Shield volcano,?,57.1,159.93
158.1949972,52.45299546,582,275,1000-06=,Mutnovsky,Kamchatka,Historical,2322,Complex volcano,D1,52.453,158.195
160.2499879,57.82999722,583,276,1000-63-,Plosky,Kamchatka,Holocene?,1255,Shield volcano,?,57.83,160.25
158.2999929,52.67999661,584,277,1000-083,Vilyuchik,Kamchatka,Tephrochronology,2173,Stratovolcano,D7,52.68,158.3
160.0999942,57.39999699,585,278,1000-56-,Titila,Kamchatka,Holocene?,1559,Shield volcanoes,?,57.4,160.1
160.07999,57.22999504,586,279,1000-52-,Sedankinsky,Kamchatka,Holocene?,1241,Shield volcano,?,57.23,160.08
159.9499852,56.87999662,587,280,1000-48-,Zaozerny,Kamchatka,Holocene?,1349,Shield volcanoes,?,56.88,159.95
160.249988,57.46999669,588,281,1000-57-,Mezhdusopochny,Kamchatka,Holocene?,1641,Shield volcano,?,57.47,160.25
160.199985,57.32999732,589,282,1000-53-,Gorny Institute,Kamchatka,Holocene?,2125,Stratovolcano,?,57.33,160.2
158.519994,52.91999444,590,283,1000-085,Unnamed,Kamchatka,Holocene,450,Shield volcanoes,U,52.92,158.52
160.6199827,58.36999425,591,284,1000-72-,Voyampolsky,Kamchatka,Holocene?,1225,Shield volcanoes,?,58.37,160.62
158.6879931,53.31999589,592,285,1000-09=,Koryaksky,Kamchatka,Historical,3456,Stratovolcano,D2,53.32,158.688
160.3999818,57.6999962,593,286,1000-60-,Alngey,Kamchatka,Holocene?,1853,Stratovolcano,?,57.7,160.4
160.5299866,57.87999648,594,287,1000-64-,Bely,Kamchatka,Holocene?,2080,Shield volcanoes,?,57.88,160.53
160.3699831,57.44999624,595,288,1000-58-,Shishel,Kamchatka,Holocene?,2525,Shield volcano,?,57.45,160.37
158.9219865,53.63699718,596,289,1000-11=,Dzenzursky,Kamchatka,Holocene,2285,Compound volcano,U,53.637,158.922
145.1000014,20.13000583,597,290,0804-142,Supply Reef,Mariana Is-C Pacific,Hydrophonic,-8,Submarine volcano,D1,20.13,145.1
160.6499816,57.96999662,598,291,1000-65-,Atlasova,Kamchatka,Holocene?,1764,Shield volcanoes,?,57.97,160.65
158.8299914,53.25499729,599,292,1000-10=,Avachinsky,Kamchatka,Historical,2741,Stratovolcano,D1,53.255,158.83
160.5799896,57.69999621,600,293,1000-61-,Uka,Kamchatka,Holocene?,1643,Shield volcano,?,57.7,160.58
160.5299867,57.52999426,601,294,1000-59-,Elovsky,Kamchatka,Tephrochronology,1381,Shield volcanoes,D7,57.53,160.53
160.7699919,58.07999722,602,295,1000-67-,Iktunup,Kamchatka,Holocene?,2300,Shield volcanoes,?,58.08,160.77
160.7499877,58.01999586,603,296,1000-66-,Snezhniy,Kamchatka,Holocene?,2169,Shield volcano,?,58.02,160.75
160.3999819,57.12999662,604,297,1000-51-,Fedotych,Kamchatka,Holocene?,965,Shield volcano,?,57.13,160.4
160.8199949,58.17999568,605,298,1000-68-,Ostry,Kamchatka,Holocene?,2552,Stratovolcanoes,?,58.18,160.82
160.6699859,57.79999468,606,299,1000-62-,Kaileney,Kamchatka,Holocene?,1582,Shield volcano,?,57.8,160.67
160.8699826,58.27999414,607,300,1000-70-,Severny,Kamchatka,Holocene?,1936,Shield volcano,?,58.28,160.87
160.9699887,58.19999615,608,301,1000-69-,Snegovoy,Kamchatka,Holocene?,2169,Shield volcano,?,58.2,160.97
159.1469926,53.58999633,609,302,1000-12=,Zhupanovsky,Kamchatka,Historical,2958,Compound volcano,D2,53.59,159.147
161.0799892,58.39999688,610,303,1000-71-,Iettunup,Kamchatka,Holocene?,1340,Shield volcanoes,?,58.4,161.08
145.2199965,20.02000334,611,304,0804-143,Maug Islands,Mariana Is-C Pacific,Holocene?,227,Stratovolcano,?,20.02,145.22
159.4299819,54.04999534,612,305,1000-13=,Karymsky,Kamchatka,Historical,1536,Stratovolcano,D1,54.05,159.43
159.4499861,53.97999566,613,306,1000-125,Akademia Nauk,Kamchatka,Historical,1180,Stratovolcanoes,D1,53.98,159.45
159.799992,54.52999481,614,307,1000-16-,Taunshits,Kamchatka,Radiocarbon,2353,Stratovolcano,D7,54.53,159.8
160.3299903,55.82999764,615,308,1000-24=,Tolbachik,Kamchatka,Historical,3682,Shield volcano,D1,55.83,160.33
159.6699873,54.12999717,616,309,1000-14=,Maly Semiachik,Kamchatka,Historical,1560,Caldera,D2,54.13,159.67
-121.4912101,46.20585056,617,516,1201-04-,Adams,US-Washington,Tephrochronology,3742,Stratovolcano,D6,46.206,-1.2149
-122.081214,45.87984264,618,517,1201-06-,West Crater,US-Washington,Radiocarbon,1329,Volcanic field,D7,45.88,-1.2208
-121.8212043,45.92984572,619,518,1201-07-,Indian Heaven,US-Washington,Radiocarbon,1806,Shield volcanoes,D7,45.93,-1.2182
-121.6912069,45.37384594,620,519,1202-01-,Hood,US-Oregon,Historical,3426,Stratovolcano,D3,45.374,-1.2169
-24.96998539,16.85000379,621,520,1804-04-,Sao Vicente,Cape Verde Is,Holocene,725,Stratovolcano,U,16.85,-24.97
-121.8011921,44.69184668,622,521,1202-02-,Jefferson,US-Oregon,Varve Count,3199,Stratovolcano,D6,44.692,-1.218
-121.771178,44.41984349,623,522,1202-03-,Blue Lake Crater,US-Oregon,Radiocarbon,1230,Maar,D7,44.42,-1.2177
-121.9311893,44.37985019,624,523,1202-04-,Sand Mountain Field,US-Oregon,Radiocarbon,1664,Cinder cones,D7,44.38,-1.2193
-121.8311832,44.33184605,625,524,1202-05-,Washington,US-Oregon,Radiocarbon,2376,Shield volcano,D6,44.332,-1.2183
-121.8411777,44.28484516,626,525,1202-06-,Belknap,US-Oregon,Radiocarbon,2095,Shield volcanoes,D6,44.285,-1.2184
-121.7711627,44.16984348,627,526,1202-07-,North Sister Field,US-Oregon,Radiocarbon,3074,Complex volcano,D6,44.17,-1.2177
-121.7711627,44.09984378,628,527,1202-08-,South Sister,US-Oregon,Radiocarbon,3157,Complex volcano,D7,44.1,-1.2177
-121.6811587,43.97884158,629,528,1202-09-,Bachelor,US-Oregon,Tephrochronology,2763,Stratovolcano,D7,43.979,-1.2168
-24.34998623,14.95000184,630,529,1804-01=,Fogo,Cape Verde Is,Historical,2829,Stratovolcano,D1,14.95,-24.35
-126.7813179,42.66983528,631,530,1301-021,North Gorda Ridge,Pacific-NE,Historical,-3000,Submarine volcano,D1,42.67,-1.2678
-121.2211442,43.72184927,632,531,1202-11-,Newberry Volcano,US-Oregon,Radiocarbon,2434,Shield volcano,D6,43.722,-1.2122
-121.8211504,43.56984877,633,532,1202-10-,Davis Lake,US-Oregon,Radiocarbon,2163,Volcanic field,D7,43.57,-1.2182
-24.71998525,14.85000429,634,533,1804-02-,Brava,Cape Verde Is,Holocene,900,Stratovolcano,U,14.85,-24.72
-120.8611282,43.51186165,635,534,1202-12-,Devils Garden,US-Oregon,Holocene?,1698,Volcanic field,?,43.512,-1.2086
-122.1011568,43.24085397,636,535,1202-15-,Cinnamon Butte,US-Oregon,Holocene?,1956,Cinder cones,?,43.241,-1.221
-120.75112,43.47186455,637,536,1202-13-,Squaw Ridge Lava Field,US-Oregon,Holocene?,1711,Volcanic field,?,43.472,-1.2075
-120.661116,43.36086831,638,537,1202-14-,Four Craters Lava Field,US-Oregon,Holocene?,1501,Volcanic field,?,43.361,-1.2066
-122.1211534,42.92985694,639,538,1202-16-,Crater Lake,US-Oregon,Radiocarbon,2487,Caldera,D7,42.93,-1.2212
-110.6707731,44.42994585,640,539,1205-01-,Yellowstone,US-Wyoming,Tephrochronology,2805,Calderas,D7,44.43,-1.1067
-163.8300159,23.58000323,641,540,1302-09-,Unnamed,Hawaiian Is,Historical,-4000,Submarine volcano,D2,23.58,-1.6383
-118.7510509,43.09988213,642,541,1202-17-,Diamond Craters,US-Oregon,Holocene?,1435,Volcanic field,?,43.1,-1.1875
-117.4710061,43.1498853,643,542,1202-19-,Jordan Craters,US-Oregon,Radiocarbon,1473,Volcanic field,D7,43.15,-1.1747
-117.8010156,42.99988374,644,543,1202-18-,Saddle Butte,US-Oregon,Holocene?,1700,Volcanic field,?,43,-1.178
-113.5008592,43.41990903,645,544,1204-02-,Craters of the Moon,US-Idaho,Radiocarbon,2005,Cinder cones,D7,43.42,-1.135
-112.4508255,43.49991859,646,545,1204-04-,Hell's Half Acre,US-Idaho,Radiocarbon,1631,Shield volcano,D7,43.5,-1.1245
-114.3508884,43.17991106,647,546,1204-01-,Shoshone Lava Field,US-Idaho,Holocene,1478,Shield volcano,D7,43.18,-1.1435
-117.580999,42.60588271,648,547,1202-20-,Jackies Butte,US-Oregon,Holocene?,1418,Volcanic field,?,42.606,-1.1758
-121.5711195,41.57988893,649,548,1203-02-,Medicine Lake,US-California,Radiocarbon,2412,Shield volcano,D6,41.58,-1.2157
-113.2208451,42.87991571,650,549,1204-03-,Wapi Lava Field,US-Idaho,Radiocarbon,1604,Shield volcano,D7,42.88,-1.1322
-122.2011321,41.41987758,651,550,1203-01-,Shasta,US-California,Historical,4317,Stratovolcano,D4,41.42,-1.222
-121.4411145,41.1778923,652,551,1203-03-,Brushy Butte,US-California,Holocene?,1174,Shield volcano,?,41.178,-1.2144
-121.361105,40.95489272,653,552,1203-04-,Big Cave,US-California,Holocene?,1259,Shield volcano,?,40.955,-1.2136
-121.6011105,40.77988582,654,553,1203-05-,Twin Buttes,US-California,Holocene?,1631,Cinder cones,?,40.78,-1.216
-121.5511075,40.67988734,655,554,1203-06-,Tumble Buttes,US-California,Holocene?,2191,Cinder cones,?,40.68,-1.2155
-120.8310832,40.6298996,656,555,1203-09-,Eagle Lake Field,US-California,Holocene?,1652,Fissure vents,?,40.63,-1.2083
-121.5011044,40.4918876,657,556,1203-08-,Lassen Volc Center,US-California,Historical,3187,Stratovolcano,D2,40.492,-1.215
-122.7711086,38.96990328,658,557,1203-10-,Clear Lake,US-California,Holocene,1439,Volcanic field,U,38.97,-1.2277
-119.7210289,39.37491759,659,558,1206-01-,Steamboat Springs,US-Nevada,Pleistocene-Fumarolic,1415,Lava domes,Q,39.375,-1.1972
-158.7472525,21.74648246,660,559,1302-08-,Unnamed,Hawaiian Is,Uncertain,-3000,Submarine volcano ?,?,21.75,-1.5875
-107.030612,39.64999256,661,560,1208-01-,Dotsero,US-Colorado,Radiocarbon,2230,Maar,D7,39.65,-1.0703
-119.030988,37.99992896,662,561,1203-11-,Mono Lake Volc Field,US-California,Tephrochronology,2121,Cinder cones,D4,38,-1.1903
-112.5007898,38.9699689,663,562,1207-05-,Black Rock Desert,US-Utah,Radiocarbon,1800,Volcanic field,D6,38.97,-1.125
-119.0009892,37.87993383,664,563,1203-12-,Mono Craters,US-California,Radiocarbon,2796,Lava domes,D6,37.88,-1.19
-119.0209782,37.69194172,665,564,1203-13-,Inyo Craters,US-California,Radiocarbon,2629,Lava domes,D6,37.692,-1.1902
-118.8709843,37.69993733,666,565,1203-14-,Long Valley,US-California,Pleistocene-Fumarolic,3390,Caldera,Q,37.7,-1.1887
-119.050977,37.579946,667,566,1203-15-,Red Cones,US-California,Radiocarbon,2748,Cinder cones,D7,37.58,-1.1905
-157.7972709,21.36683427,668,567,1302-07-,Koolau,Hawaiian Is,Holocene?,941,Shield volcano,?,21.37,-1.578
-117.4509171,37.01994087,669,568,1203-16-,Ubehebe Craters,US-California,Anthropology,752,Maars,D7,37.02,-1.1745
-112.6707802,37.5799884,670,569,1207-04-,Markagunt Plateau,US-Utah,Dendrochronology,2840,Volcanic field,D6,37.58,-1.1267
-113.6208078,37.25698644,671,570,1207-01-,Santa Clara,US-Utah,Holocene?,1465,Volcanic field,?,37.257,-1.1362
-112.4007682,37.32798567,672,571,1207-03-,Bald Knoll,US-Utah,Holocene,2135,Cinder cones,U,37.328,-1.124
-118.3209352,36.35794581,673,572,1203-17-,Golden Trout Creek,US-California,Tephrochronology,2886,Volcanic field,D7,36.358,-1.1832
-156.5671989,20.5668198,674,573,1302-05-,Kahoolawe,Hawaiian Is,Holocene?,450,Shield volcano,?,20.57,-1.5657
-117.8209198,36.02995051,675,574,1203-18-,Coso Volc Field,US-California,Holocene?,2400,Lava domes,?,36.03,-1.1782
-156.2472069,20.70480883,676,575,1302-06-,Haleakala,Hawaiian Is,Anthropology,3055,Shield volcano,D4,20.708,-1.5625
-113.1307716,36.37998746,677,576,1209-01-,Uinkaret Field,US-Arizona,Anthropology,1555,Volcanic field,D6,36.38,-1.1313
-155.8672325,19.68896643,678,577,1302-04-,Hualalai,Hawaiian Is,Historical,2523,Shield volcano,D3,19.692,-1.5587
-155.4672386,19.81695524,679,578,1302-03-,Mauna Kea,Hawaiian Is,Radiocarbon,4205,Shield volcano,D7,19.82,-1.5547
-116.6208768,34.74999362,680,579,1203-19-,Lavic Lake,US-California,Holocene?,1495,Volcanic field,?,34.75,-1.1662
-106.5705971,35.87002761,681,580,1210-03-,Valles Caldera,US-New Mexico,Pleistocene-Fumarolic,3430,Caldera,Q,35.87,-1.0657
-111.5007205,35.370012,682,581,1209-02-,Sunset Crater,US-Arizona,Dendrochronology,2447,Cinder cone,D6,35.37,-1.115
-155.5972435,19.47197501,683,582,1302-02=,Mauna Loa,Hawaiian Is,Historical,4170,Shield volcano,D1,19.475,-1.556
-155.2872307,19.42197959,684,583,1302-01-,Kilauea,Hawaiian Is,Historical,1222,Shield volcano,D1,19.425,-1.5529
-115.7808421,34.54999669,685,584,1203-20-,Amboy,US-California,Holocene,288,Cinder cone,U,34.55,-1.1578
-155.2672417,18.91724366,686,585,1302-00-,Loihi,Hawaiian Is,Historical,-975,Submarine volcano,D1,18.92,-1.5527
-108.0006282,34.80005057,687,586,1210-02-,Zuni-Bandera,US-New Mexico,Anthropology,2550,Volcanic field,D7,34.8,-1.08
-124.2510505,31.75005012,688,587,1301-03-,Unnamed,Pacific-NE,Uncertain,-2533,Submarine volcano ?,?,31.75,-1.2425
-105.9305593,33.78007676,689,588,1210-01-,Carrizozo,US-New Mexico,Holocene,1731,Cinder cone,U,33.78,-1.0593
-115.3008309,32.41806515,690,589,1401-00-,"Prieto, Cerro",Mexico,Holocene?,223,Lava dome,?,32.418,-1.153
-113.490749,31.77207287,691,590,1401-001,Pinacate,Mexico,Holocene,1200,Cinder cones,U,31.772,-1.1349
-115.9908028,30.46811178,692,591,1401-002,San Quintin Volc Field,Mexico,Holocene?,260,Cinder cones,?,30.468,-1.1599
-114.3807256,29.81412387,693,592,1401-003,"San Luis, Isla",Mexico,Holocene,180,Tuff cone,U,29.814,-1.1438
-118.2808193,29.07012796,694,593,1401-006,Guadalupe,Mexico,Holocene,1100,Shield volcano,U,29.07,-1.1828
-114.5007207,29.33013599,695,594,1401-004,Jaraguay Volc Field,Mexico,Holocene,960,Cinder cones,U,29.33,-1.145
-113.5106845,29.08014362,696,595,1401-005,Coronado,Mexico,Fumarolic,440,Stratovolcano,U,29.08,-1.1351
-113.7506671,28.50015505,697,596,1401-007,San Borja Volc Field,Mexico,Holocene,1360,Cinder cones,U,28.5,-1.1375
-115.0006902,28.00016256,698,597,1401-008,Unnamed,Mexico,Uncertain,0,Submarine volcano ?,?,28,-1.15
-112.5905945,27.47018094,699,598,1401-01=,Tres Virgenes,Mexico,Radiocarbon,1940,Stratovolcanoes,D7,27.47,-1.1259
-111.8505736,27.39218565,700,599,1401-011,"Tortuga, Isla",Mexico,Holocene,210,Shield volcano,U,27.392,-1.1185
-111.9205275,26.00021193,701,600,1401-012,Comondu-La Purisima,Mexico,Holocene?,780,Volcanic field,?,26,-1.1192
-63.22999681,17.6299999,702,601,1600-01=,Saba,W Indies,Historical,887,Stratovolcano,D5,17.63,-63.23
-62.94999794,17.48000406,703,602,1600-02=,"Quill, The",W Indies,Radiocarbon,601,Stratovolcano,D6,17.48,-62.95
-62.79999637,17.37000342,704,603,1600-03=,Liamuiga,W Indies,Radiocarbon,1156,Stratovolcano,D6,17.37,-62.8
-62.57999889,17.15000214,705,604,1600-04=,Nevis Peak,W Indies,Holocene,985,Stratovolcano,U,17.15,-62.58
-62.17999723,16.72000171,706,605,1600-05=,Soufriere Hills,W Indies,Historical,915,Stratovolcano,D1,16.72,-62.18
-104.4502958,24.15029719,707,606,1401-022,Durango Volc Field,Mexico,Holocene,2075,Cinder cones,U,24.15,-1.0445
-61.66999492,16.05000144,708,607,1600-06=,Soufriere Guadeloupe,W Indies,Historical,1467,Stratovolcano,D1,16.05,-61.67
-61.44999744,15.62000291,709,608,1600-08=,"Diables, Morne aux",W Indies,Holocene,861,Stratovolcano,U,15.62,-61.45
-61.41999483,15.50000299,710,609,1600-09=,"Diablotins, Morne",W Indies,Holocene?,1430,Stratovolcano,?,15.5,-61.42
-61.32999846,15.37000093,711,610,1600-10=,"Trois Pitons, Morne",W Indies,Radiocarbon,1387,Lava domes,D6,15.37,-61.33
-61.31999632,15.30000217,712,611,1600-101,"Watt, Morne",W Indies,Historical,1224,Stratovolcano,D1,15.3,-61.32
-61.36999558,15.22000222,713,612,1600-11=,"Plat Pays, Morne",W Indies,Radiocarbon,940,Stratovolcano,D6,15.22,-61.37
-61.16999474,14.82000153,714,613,1600-12=,Pelee,W Indies,Historical,1397,Stratovolcano,D2,14.82,-61.17
-61.04999575,13.83000241,715,614,1600-14=,Qualibou,W Indies,Historical,777,Caldera,D4,13.83,-61.05
-61.17999304,13.33000034,716,615,1600-15=,Soufriere St. Vincent,W Indies,Historical,1220,Stratovolcano,D1,13.33,-61.18
-104.7302031,21.45033593,717,616,1401-023,Sanganguey,Mexico,Holocene,2340,Stratovolcano,U,21.45,-1.0473
-104.5001768,21.12534083,718,617,1401-03=,Ceboruco,Mexico,Historical,2280,Stratovolcano,D3,21.125,-1.045
-104.830171,20.62034728,719,618,1401-031,Mascota Volc Field,Mexico,Holocene,2560,Cinder cones,U,20.62,-1.0483
